X,Y,OBJECTID,LM_ID,LM_NAME,CATEGORY,LM_TYPE,SDA_CAT,STR_ADDR,UNIT,MUN,PR,POSTAL,PHONE,WEBSITE,Type,ExtDay,WARDNUM,ROPADRID
-8873465.6821,5400660.9298,1,CC-OTH-233,123 TLC Daycare,Social Services,Child Care (Other),Child Care Centre,322 Queen St S,,Mississauga,ON,L5N 3E4,905-609-0881,https://peelchildcare.cioc.ca/record/CDR0554,Community-Based For-Profit Centre,No,11,93448
-8867820.1402,5407121.7503,2,CC-OTH-123,ABC Montessori II,Social Services,Child Care (Other),Child Care Centre,285 Matheson Blvd E,,Mississauga,ON,L4Z 1X8,905-568-1716,https://peelchildcare.cioc.ca/record/CDR0546,Community-Based For-Profit Centre,No,5,42542
-8864056.2289,5405822.9356,3,CC-OTH-115,ABC Montessori Learning Centre,Social Services,Child Care (Other),Child Care Centre,4300 Cawthra Rd,,Mississauga,ON,L4Z 1V8,905-281-2595,https://peelchildcare.cioc.ca/record/CDR0415,Community-Based For-Profit Centre,No,4,3301
-8886153.3218,5416148.0959,4,CC-OTH-154,Absolute Angels,Social Services,Child Care (Other),Child Care Centre,222 Salvation Rd,,Brampton,ON,L7A 0W9,905-970-0415,https://peelchildcare.cioc.ca/record/CDR0430,Community-Based For-Profit Centre,No,6,
-8887284.6461,5417504.5609,5,CC-OTH-280,Absolute Angels II Daycare,Social Services,Child Care (Other),Child Care Centre,10635 Creditview Rd,,Brampton,ON,L7A 0T4,905-970-9581,https://peelchildcare.cioc.ca/record/CDR1321,Community-Based For-Profit Centre,No,6,
-8873366.8676,5425138.2943,6,CC-PLP-207,Active Learning Centre (St. Thomas Aquinas) (PLASP),Social Services,Child Care (PLASP),Child Care Centre,25 Corporation Dr,,Brampton,ON,L6S 6A2,905-799-0685,https://peelchildcare.cioc.ca/record/CDR0397,School-Based Centre,No,8,
-8876031.4688,5397517.1531,7,CC-OTH-234,Advanced Care and Education Daycare,Social Services,Child Care (Other),Child Care Centre,5575 Bonnie St,,Mississauga,ON,L5M 0N8,905-270-4555,https://peelchildcare.cioc.ca/record/CDR0980,Community-Based Non-Profit Centre,No,10,294982
-8878634.3944,5418816.625,8,CC-PLP-125,Agnes Taylor (PLASP),Social Services,Child Care (PLASP),Child Care Centre,80 Beech St,,Brampton,ON,L6V 1V6,905-890-1711,https://peelchildcare.cioc.ca/record/CDR0748,School-Based Centre,Yes,1,172865
-8867885.1561,5430396.6858,9,CC-OTH-207,Akal Child Care,Social Services,Child Care (Other),Child Care Centre,4535 Ebenezer Rd ,2,Brampton,ON,L6P 2P7,905-913-7333,https://peelchildcare.cioc.ca/record/CDR1632,Community-Based For-Profit Centre,No,8,283023
-8873337.4124,5393271.0361,10,CC-PLP-009b,All Saints (PLASP),Social Services,Child Care (PLASP),Child Care Centre,4105 Colonial Dr,,Mississauga,ON,L5L 4E8,905-890-1711,https://peelchildcare.cioc.ca/record/CDR0647,School-Based Centre,Yes,8,240440
-8873284.2747,5393289.4137,11,CC-PLP-009a,All Saints Early Learning Centre (PLASP),Social Services,Child Care (PLASP),Child Care Centre,4105 Colonial Dr,,Mississauga,ON,L5L 4E8,905-890-1711,https://peelchildcare.cioc.ca/record/CDR0474,School-Based Centre,No,8,
-8891497.4294,5419498.3752,12,CC-YMC-076,Alloa (YMCA),Social Services,Child Care (YMCA),Child Care Centre,12287 Mississauga Rd,,Caledon,ON,L7C 1X1,905-843-2332,https://peelchildcare.cioc.ca/record/CDR1352,School-Based Centre,Yes,2,406066
-8872587.2521,5420365.6049,13,CC-PLP-173,Aloma Cr. (PLASP),Social Services,Child Care (PLASP),Child Care Centre,57 Aloma Cres,,Brampton,ON,L6T 2N8,905-890-1711,https://peelchildcare.cioc.ca/record/CDR1043,School-Based Centre,Yes,7,84476
-8877365.3697,5426457.2204,14,CC-OTH-199,Alpha Child Care I,Social Services,Child Care (Other),Child Care Centre,900 Peter Robertson Blvd ,10,Brampton,ON,L6R 1A2,905-458-4884,https://peelchildcare.cioc.ca/record/CDR0378,Community-Based For-Profit Centre,No,9,187302
-8876943.0129,5415886.4042,15,CC-OTH-153,Alpha Child Care II - Cathedral,Social Services,Child Care (Other),Child Care Centre,3 Cathedral Rd,,Brampton,ON,L6W 2P1,905-456-1811,https://peelchildcare.cioc.ca/record/CDR0404,Community-Based For-Profit Centre,No,3,390928
-8876683.2242,5401742.422,16,CC-OTH-235,Alpha's Preschool Academy,Social Services,Child Care (Other),Child Care Centre,6435 Erin Mills Pky,,Mississauga,ON,L5T 2H9,905-812-8880,https://peelchildcare.cioc.ca/record/CDR0596,Community-Based For-Profit Centre,No,11,326419
-8912804.7109,5443522.5348,17,CC-YMC-082,Alton YMCA,Social Services,Child Care (YMCA),Child Care Centre,19681 Main St,,Caledon,ON,L7K 0E1,1-866-317-6251,https://peelchildcare.cioc.ca/record/CDR1717,School-Based Centre,Yes,1,402119
-8874301.8772,5408916.3186,18,CC-OTH-138,Angelic Treasures Christian Child Care,Social Services,Child Care (Other),Child Care Centre,6970 Vicar Gate,,Mississauga,ON,L5W 1G7,905-670-6614,https://peelchildcare.cioc.ca/record/CDR0548,Community-Based For-Profit Centre,No,11,212098
-8887024.4839,5423364.4804,19,CC-OTH-358,Angelic Treasures Christian Daycare,Social Services,Child Care (Other),Child Care Centre,2626 Mayfield Rd,,Caledon,ON,L7C 3K7,905-495-1417,https://peel.cioc.ca/record/CDR1758?Number=0 ,Community-Based For-Profit Centre,No,2,74995
-8858362.2503,5402790.3143,20,CC-OTH-281,Appleseed Academy of Early Learning,Social Services,Child Care (Other),Child Care Centre,2067 Stanfield Rd,,Mississauga,ON,L6X 1J3,905-459-9219,https://peelchildcare.cioc.ca/record/CDR1139,Community-Based For-Profit Centre,No,1,117004
-8885290.6961,5417979.3082,21,CC-OTH-292,Applewood Montessori Academy & Daycare (Applewood),Social Services,Child Care (Other),Child Care Centre,333 Fairhill Ave,1-6,Brampton,ON,L7A 3N9,416-951-4688,https://peelchildcare.cioc.ca/record/CDR0036,Community-Based For-Profit Centre,No,6,244754
-8879081.8642,5416694.6214,22,CC-OTH-367,Applewood Montessori Academy & Daycare (Downtown),Social Services,Child Care (Other),Child Care Centre,98A Queen St W,,Brampton,ON,L6X1A4,905-453-2022,https://peel.cioc.ca/record/CDR1797?Number=1,Community-Based For-Profit Centre,No,1,389923
-8859601.7574,5396498.8511,23,CC-OTH-016,Applewood Rainbow Montessori School,Social Services,Child Care (Other),Child Care Centre,24 Stavebank Rd,,Mississauga,ON,L5G 2T5,905-274-2321,https://peelchildcare.cioc.ca/record/CDR0576,Community-Based For-Profit Centre,No,1,
-8879688.9163,5421450.8091,24,CC-PLP-133,Arnott Charlton (PLASP),Social Services,Child Care (PLASP),Child Care Centre,140 Winterfold Dr,,Brampton,ON,L6V 1V6,905-890-1711,https://peelchildcare.cioc.ca/record/CDR0751,School-Based Centre,Yes,1,253608
-8874296.4472,5395000.7999,25,CC-PLP-016,Artesian Drive (PLASP),Social Services,Child Care (PLASP),Child Care Centre,3325 Artesian Dr,,Mississauga,ON,L5M 7J8,905-890-1711,https://peelchildcare.cioc.ca/record/CDR0717,School-Based Centre,Yes,8,282747
-8886809.9343,5415770.5414,26,CC-PLP-237,Aylesbury (PLASP),Social Services,Child Care (PLASP),Child Care Centre,25 Aylesbury Dr,,Brampton,ON,L7A 0V3,905-890-1711,https://peelchildcare.cioc.ca/record/CDR1396,School-Based Centre,Yes,6,
-8867772.8435,5406618.2741,27,CC-FDC-021,Barondale (Family Day Care),Social Services,Child Care (Family Day),Child Care Centre,200 Barondale Dr,,Mississauga,ON,L5T 2J8,416-922-3434,https://peelchildcare.cioc.ca/record/CDR0858,School-Based Centre,Yes,5,301179
-8875569.8396,5424128.6079,28,CC-OTH-332,Beesmart Child Care Centre,Social Services,Child Care (Other),Child Care Centre,1305 Williams Pkwy,,Brampton,ON,L6S 3J8,905-791-6770 ext 122,https://peelchildcare.cioc.ca/record/CDR1533,School-Based Centre,No,7,294320
-8907594.743,5432745.5784,29,CC-YMC-058,Belfountain (YMCA),Social Services,Child Care (YMCA),Child Care Centre,17247 Shaws Creek Rd,,Caledon,ON,L6P 3A5,647-367-9321,https://peelchildcare.cioc.ca/record/CDR1287,School-Based Centre,Yes,1,326398
-8868767.6792,5433106.72,30,CC-FDC-011,Beryl Ford (Family Day Care),Social Services,Child Care (Family Day),Child Care Centre,45 Ironshield Dr,,Brampton,ON,L6P 3N5,416-922-3434,https://peelchildcare.cioc.ca/record/CDR1038,School-Based Centre,Yes,10,260825
-8872799.6083,5419618.9274,31,CC-PLP-128,Birchbank (PLASP),Social Services,Child Care (PLASP),Child Care Centre,52 Birchbank Rd,,Brampton,ON,L6T 1L7,905-890-1711,https://peelchildcare.cioc.ca/record/CDR1049,School-Based Centre,Yes,7,75029
-8877332.2898,5413961.8935,32,CC-PLP-111,Bishop Francis Allen (PLASP),Social Services,Child Care (PLASP),Child Care Centre,325 McMurchy Ave S,,Brampton,ON,L6Y 1Z4,905-890-1711,https://peelchildcare.cioc.ca/record/CDR0753,School-Based Centre,Yes,3,282705
-8864983.2988,5401398.67,33,CC-PLP-063,Bishop Scalabrini (PLASP),Social Services,Child Care (PLASP),Child Care Centre,225 Central Pky W,,Mississauga,ON,L5B 3J5,905-890-1711,https://peelchildcare.cioc.ca/record/CDR0680,School-Based Centre,Yes,7,221571
-8873551.9985,5443738.0111,34,CC-OTH-237,Bizzy Buddies Learning and Childcare,Social Services,Child Care (Other),Child Care Centre,12612 Highway 50 ,13A,Caledon,ON,L7E 1T6,905-857-7648,https://peelchildcare.cioc.ca/record/CDR0976,Community-Based For-Profit Centre,No,5,392161
-8879757.8719,5427254.1964,35,CC-PLP-205,Blessed Michael J. McGivney (PLASP),Social Services,Child Care (PLASP),Child Care Centre,450 Fernforest Dr,,Brampton,ON,L6R 2P7,905-890-1711,https://peelchildcare.cioc.ca/record/CDR0786,School-Based Centre,Yes,9,86592
-8860005.3224,5397800.6602,36,CC-OTH-040,Blue Elephant Daycare,Social Services,Child Care (Other),Child Care Centre,1322 Hurontario St,,Mississauga,ON,L5G 3H3,905-891-1279,https://peelchildcare.cioc.ca/record/CDR0577,Community-Based For-Profit Centre,No,1,140228
-8872426.5639,5442954.1699,37,CC-YMC-026,Bolton YMCA Child Care,Social Services,Child Care (YMCA),Child Care Centre,12295 Highway 50,Box 812,Caledon,ON,L7E 5T5,905-857-3531 ext 300,https://peelchildcare.cioc.ca/record/CAL0951,Community-Based Non-Profit Centre,No,5,391971
-8875236.8056,5426691.8288,38,CC-OTH-293,Boni Montessori School,Social Services,Child Care (Other),Child Care Centre,9886 Torbram Rd,201A,Brampton,ON,L6S 3L9,905-790-2664,https://peelchildcare.cioc.ca/record/CDR1356,Community-Based For-Profit Centre,No,8,288806
-8878738.9337,5417375.3076,39,CC-YMC-017,Brampton YMCA,Social Services,Child Care (YMCA),Child Care Centre,20 Union St,,Brampton,ON,L6V 1R2,905-451-1400 ext 440,https://peelchildcare.cioc.ca/record/CDR0421,Community-Based Non-Profit Centre,No,1,
-8865629.7358,5424145.5339,40,CC-PLP-175,Brandon Gate (PLASP),Social Services,Child Care (PLASP),Child Care Centre,3800 Brandon Gate Dr,,Mississauga,ON,L4T 3V9,905-890-1711,https://peelchildcare.cioc.ca/record/CDR1045,School-Based Centre,Yes,5,239694
-8859589.8332,5406540.1931,41,CC-PLP-096b,Brian W. Fleming (PLASP),Social Services,Child Care (PLASP),Child Care Centre,3255 Havenwood Dr,,Mississauga,ON,L4X 2M2,905-890-1711,https://peelchildcare.cioc.ca/record/CDR0689,School-Based Centre,Yes,3,22672
-8859604.5973,5406584.4036,42,CC-PLP-096a,Brian W. Fleming Early Learning Centre (PLASP),Social Services,Child Care (PLASP),Child Care Centre,3255 Havenwood Dr,,Mississauga,ON,L4X 2M2,905-890-1711,https://peelchildcare.cioc.ca/record/CDR0516,School-Based Centre,No,3,
-8863218.6058,5404068.2444,43,CC-PLP-082,Briarwood (PLASP),Social Services,Child Care (PLASP),Child Care Centre,1065 Mississauga Valley Blvd,,Mississauga,ON,L5A 2A1,905-890-1711,https://peelchildcare.cioc.ca/record/CDR0681,School-Based Centre,Yes,4,222727
-8875152.3173,5403014.7608,44,CC-OTH-086,Bright Scholars Academy Inc. - Falconer,Social Services,Child Care (Other),Child Care Centre,24 Falconer Dr,,Mississauga,ON,L5N 1B1,905-826-3595,https://peelchildcare.cioc.ca/record/CDR0551,Community-Based For-Profit Centre,No,11,105102
-8863059.8756,5401464.1997,45,CC-OTH-071,Bright Scholars Academy Inc. - Kirwin,Social Services,Child Care (Other),Child Care Centre,3180 Kirwin Ave,,Mississauga,ON,L5A 2K7,905-896-4553,https://peelchildcare.cioc.ca/record/CDR1019,Community-Based For-Profit Centre,No,7,
-8877577.3455,5400817.8887,46,CC-OTH-059,Bright Scholars Montessori - Montevideo,Social Services,Child Care (Other),Child Care Centre,5920 Montevideo Rd,,Mississauga,ON,L5N 3J5,905-542-1895,https://peelchildcare.cioc.ca/record/CDR0390,Community-Based For-Profit Centre,No,9,
-8886226.0741,5427877.4595,47,CC-OTH-357,Bright Scholars Montessori Caledon,Social Services,Child Care (Other),Child Care Centre,225 Dougall Ave,,Caledon,ON,L7C 2H1,905-849-0762,https://peel.cioc.ca/record/CDR1758,Community-Based For-Profit Centre,No,2,477652
-8872100.0961,5420114.1156,48,CC-OTH-265,BrightPath - Avondale,Social Services,Child Care (Other),Child Care Centre,55 Avondale Blvd,,Brampton,ON,L6W 2C4,905-799-2212,https://peelchildcare.cioc.ca/record/CDR0391,Community-Based For-Profit Centre,No,7,281244
-8873972.6378,5443840.9323,49,CC-OTH-295,BrightPath - Bolton,Social Services,Child Care (Other),Child Care Centre,14 McEwan Dr W,1,Caledon,ON,L7E 1H1,905-857-4634,https://peelchildcare.cioc.ca/record/CAL0099,Community-Based For-Profit Centre,No,5,392144
-8877654.412,5412834.7397,50,CC-OTH-314,BrightPath - Charolais,Social Services,Child Care (Other),Child Care Centre,305 Charolais Blvd,,Brampton,ON,L6Y 2R2,905-452-5437,https://peelchildcare.cioc.ca/record/CDR1405,Community-Based For-Profit Centre,No,4,253772
-8863018.6291,5408821.807,51,CC-OTH-139,BrightPath - Dixie,Social Services,Child Care (Other),Child Care Centre,4560 Dixie Rd,,Mississauga,ON,L4W 1N2,905-629-8849,https://peelchildcare.cioc.ca/record/CDR0413,Community-Based For-Profit Centre,No,3,274117
-8867642.4701,5407181.3683,52,CC-OTH-125,BrightPath - Matheson East,Social Services,Child Care (Other),Child Care Centre,309 Matheson Blvd E,,Mississauga,ON,L5C 3N6,905-507-9796,https://peelchildcare.cioc.ca/record/CDR0509,Community-Based For-Profit Centre,No,5,142821
-8869202.3619,5406258.602,53,CC-OTH-121,BrightPath - Matheson West,Social Services,Child Care (Other),Child Care Centre,155 Matheson Blvd W,C,Mississauga,ON,L5R 3L5,905-568-4770,https://peelchildcare.cioc.ca/record/CDR0504,Community-Based For-Profit Centre,No,5,3970
-8877344.5655,5415125.0331,54,CC-OTH-266,BrightPath - Mill St.,Social Services,Child Care (Other),Child Care Centre,224 Mill St S,,Brampton,ON,L6Y 1T8,905-456-1798,https://peelchildcare.cioc.ca/record/CDR0410,Community-Based For-Profit Centre,No,3,52547
-8869279.4468,5406551.5809,55,CC-OTH-118,BrightPath - Milverton,Social Services,Child Care (Other),Child Care Centre,100 Milverton Dr,,Mississauga,ON,L5R 4H1,905-568-1371,https://peelchildcare.cioc.ca/record/CDR0543,Community-Based For-Profit Centre,No,5,105036
-8880578.8483,5414627.5885,56,CC-OTH-150,BrightPath - Queen,Social Services,Child Care (Other),Child Care Centre,685 Queen St W,,Brampton,ON,L6V 1A1,905-456-2273,https://peelchildcare.cioc.ca/record/CDR0429,Community-Based For-Profit Centre,No,4,167178
-8883104.3819,5423254.9379,57,CC-OTH-192,BrightPath - Sandalwood,Social Services,Child Care (Other),Child Care Centre,170 Sandalwood Pky E,11,Brampton,ON,L6Z 1Y5,905-846-4656,https://peelchildcare.cioc.ca/record/CDR0423,Community-Based For-Profit Centre,No,2,293972
-8876899.1401,5403033.4544,58,CC-OTH-091,BrightPath - Torquay Mews,Social Services,Child Care (Other),Child Care Centre,2172 Torquay Mews,,Mississauga,ON,L5N 2M6,905-542-2835,https://peelchildcare.cioc.ca/record/CDR0595,Community-Based For-Profit Centre,No,9,97409
-8868737.9148,5407905.257,59,CC-OTH-134,BrightPath - Traders,Social Services,Child Care (Other),Child Care Centre,220 Traders Blvd E,,Mississauga,ON,L4Z 1W7,905-712-2273,https://peelchildcare.cioc.ca/record/CDR0549,Community-Based For-Profit Centre,No,5,14935
-8865674.8562,5398799.9133,60,CC-OTH-043,BrightPath - Wolfedale,Social Services,Child Care (Other),Child Care Centre,3221 Wolfedale Rd,,Mississauga,ON,L5C 1V8,905-615-9991,https://peelchildcare.cioc.ca/record/CDR0468,Community-Based For-Profit Centre,No,6,96904
-8876417.4644,5426811.435,61,CC-OTH-200,BrightPath Professor's Lake Campus,Social Services,Child Care (Other),Child Care Centre,2 Philosopher's Trail,10,Brampton,ON,L6S 5L7,905-792-7593,https://peelchildcare.cioc.ca/record/CDR0388,Community-Based For-Profit Centre,No,8,315913
-8876983.8912,5419023.3943,62,CC-OTH-166,BrightPath Queen Campus,Social Services,Child Care (Other),Child Care Centre,255 Queen St E,5,Brampton,ON,L6W 2B8,905-799-0782,https://peelchildcare.cioc.ca/record/CDR0399,Community-Based For-Profit Centre,No,3,281926
-8882975.0937,5419308.8843,63,CC-OTH-197,BrightPath Van Kirk Campus,Social Services,Child Care (Other),Child Care Centre,35 Van Kirk Dr ,"19,20A",Brampton,ON,L7A 1A5,905-456-7339,https://peelchildcare.cioc.ca/record/CDR0854,Community-Based For-Profit Centre,No,2,299628
-8866964.4086,5406297.729,64,CC-OTH-239,Brilliant Minds Montessori - Bristol,Social Services,Child Care (Other),Child Care Centre,310 Bristol Rd E,,Mississauga,ON,L5V 2C8,905-501-0436,https://peelchildcare.cioc.ca/record/CDR0540,Community-Based For-Profit Centre,No,5,275293
-8863730.2454,5403288.0972,65,CC-OTH-097,Brilliant Minds Montessori - Mississauga Valley,Social Services,Child Care (Other),Child Care Centre,1275 Mississauga Valley Blvd,,Mississauga,ON,L5A 3R8,905-275-4144,https://peelchildcare.cioc.ca/record/CDR0511,Community-Based For-Profit Centre,No,4,
-8887407.4923,5418885.9594,66,CC-PLP-124,Brisdale (PLASP),Social Services,Child Care (PLASP),Child Care Centre,370 Brisdale Dr,,Brampton,ON,L7A 3K9,905-890-1711,https://peelchildcare.cioc.ca/record/CDR0779,School-Based Centre,No,6,249522
-8872970.94,5404737.7378,67,CC-PLP-084,Britannia (PLASP),Social Services,Child Care (PLASP),Child Care Centre,1145 Swinbourne Dr,,Mississauga,ON,L5V 1C2,905-890-1711,https://peelchildcare.cioc.ca/record/CDR0701,School-Based Centre,Yes,11,293953
-8869445.7469,5394130.7163,68,CC-PLP-232,Brookmede (PLASP),Social Services,Child Care (PLASP),Child Care Centre,2250 Council Ring Rd,,Mississauga,ON,L5L 1B7,905-890-1711,https://peelchildcare.cioc.ca/record/CDR0648,School-Based Centre,Yes,8,28184
-8905195.3117,5443777.3218,69,CC-OTH-322,Buds and Blossoms (Caledon),Social Services,Child Care (Other),Child Care Centre,2976 Charleston Sideroad,,Caledon,ON,L7K 0V8,519-942-2661,https://peelchildcare.cioc.ca/record/CDR1444,Community-Based For-Profit Centre,No,1,199749
-8883035.5938,5422468.7489,70,CC-OTH-189,Building Blocks Nursery School,Social Services,Child Care (Other),Child Care Centre,85 Sandalwood Pky E,,Brampton,ON,L6Z 4S3,905-846-3305,https://peelchildcare.cioc.ca/record/CDR0403,Community-Based For-Profit Centre,No,2,193281
-8860818.4767,5406290.4142,71,CC-PLP-094,Burnhamthorpe (PLASP),Social Services,Child Care (PLASP),Child Care Centre,3465 Golden Orchard Dr,,Mississauga,ON,L4Y 3H7,905-890-1711,https://peelchildcare.cioc.ca/record/CDR0682,School-Based Centre,Yes,3,23291
-8885334.7123,5421980.0759,72,CC-PLP-138,Burnt Elm (PLASP),Social Services,Child Care (PLASP),Child Care Centre,85 Burnt Elm Dr,,Brampton,ON,L7A 1T8,905-890-1711,https://peelchildcare.cioc.ca/record/CDR0769,School-Based Centre,Yes,2,261637
-8875344.1309,5416314.5513,73,CC-OTH-183,Busy Bees Nursery School,Social Services,Child Care (Other),Child Care Centre,168 Kennedy Rd S,,Brampton,ON,L6W 3G6,905-454-7676,https://peelchildcare.cioc.ca/record/CDR0402,Community-Based For-Profit Centre,No,3,271052
-8882068.4024,5409043.0501,74,CC-OTH-350,Busy Hands 'N' Minds Childcare Centre Brampton,Social Services,Child Care (Other),Child Care Centre,8255 Financial Dr,,Brampton,ON,L6Y 0C1,905-569-2999,https://peelchildcare.cioc.ca/record/CDR1715,Community-Based For-Profit Centre,No,6,475853
-8873278.6518,5396634.4521,75,CC-OTH-241,Busy Hands 'n' Minds Childcare,Social Services,Child Care (Other),Child Care Centre,4615 Glen Erin Dr,,Mississauga,ON,L5M 4E8,905-569-2999,https://peelchildcare.cioc.ca/record/CDR0553,Community-Based For-Profit Centre,No,8,276408
-8903664.4901,5445428.1261,76,CC-YMC-056,Caledon Central (YMCA),Social Services,Child Care (YMCA),Child Care Centre,18357 Kennedy Rd,,Caledon,ON,L7K 1Y7,519-938-5566,https://peelchildcare.cioc.ca/record/CDR1091?Number=3,School-Based Centre,Yes,1,294896
-8890155.0919,5444305.6502,77,CC-YMC-059,Caledon East (YMCA),Social Services,Child Care (YMCA),Child Care Centre,15738 Airport Rd,,Caledon,ON,L6X 0E1,905-890-1711,https://peelchildcare.cioc.ca/record/CDR1289,School-Based Centre,Yes,3,84576
-8890628.3762,5445405.2994,78,CC-OTH-223,Caledon East Children's Place,Social Services,Child Care (Other),Child Care Centre,6029 Old Church Rd,,Caledon,ON,L7C 1H8,905-584-9189,https://peelchildcare.cioc.ca/record/CAL0321,Community-Based Non-Profit Centre,No,3,
-8890662.8005,5445561.7879,79,CC-OTH-224,Caledon Hills Montessori,Social Services,Child Care (Other),Child Care Centre,6046 Old Church Rd,,Caledon,ON,L0N 1E0,905-584-5114,https://peelchildcare.cioc.ca/record/CAL0122,Community-Based For-Profit Centre,No,3,85595
-8863552.3575,5403637.0547,80,CC-PLP-078,Canadian Martyrs (PLASP),Social Services,Child Care (PLASP),Child Care Centre,1185 Mississauga Valley Blvd,,Mississauga,ON,L5A 3R7,905-890-1711,https://peelchildcare.cioc.ca/record/CDR0683,School-Based Centre,Yes,4,249672
-8880489.1219,5427820.9096,81,CC-PLP-176,Carberry (PLASP),Social Services,Child Care (PLASP),Child Care Centre,526 Fernforest Dr,,Brampton,ON,L6R 0W1,905-890-1711,https://peelchildcare.cioc.ca/record/CDR0792,School-Based Centre,Yes,9,320758
-8862413.4516,5401125.4926,82,CC-OTH-354,Caring for Kids - Dundas St,Social Services,Child Care (Other),Child Care Centre,130 Dundas St E,101,Mississauga,ON,L5A 3V8,905-896-8125,https://peelchildcare.cioc.ca/record/CDR1733,Community-Based Non-Profit Centre,No,7,126334
-8857778.0172,5399103.0,83,CC-OTH-047,Caring for Kids - The Centre,Social Services,Child Care (Other),Child Care Centre,1110 Caven St ,105,Mississauga,ON,L5G 4N4,905-274-4362,https://peelchildcare.cioc.ca/record/CDR0578,Community-Based Non-Profit Centre,No,1,133337
-8886489.6646,5421684.6821,84,CC-OTH-365,Casa Dee Montessori School,Social Services,Child Care (Other),Child Care Centre,625 Remembrance Rd,D103,Brampton,ON,L7A4P2,905-955-2333,https://peel.cioc.ca/record/CDR1795 ,Community-Based For-Profit Centre,No,6,482956
-8863927.6102,5398358.5544,85,CC-PLP-037,Cashmere (PLASP),Social Services,Child Care (PLASP),Child Care Centre,2455 Cashmere Ave,,Mississauga,ON,L5B 2M7,905-890-1711,https://peelchildcare.cioc.ca/record/CDR0684,School-Based Centre,Yes,7,232453
-8868956.6208,5433707.4361,86,CC-OTH-305,Castle Oaks (Caring for Kids),Social Services,Child Care (Other),Child Care Centre,155 Castle Oaks Cross,,Brampton,ON,L6P 3V4,905-457-3370 ext 2,https://peelchildcare.cioc.ca/record/CDR1401,School-Based Centre,Yes,10,
-8875823.0362,5398830.6624,87,CC-YMC-009,Castlebridge (YMCA),Social Services,Child Care (YMCA),Child Care Centre,2801 Castlebridge Dr,,Mississauga,ON,L5M 5J9,416-670-1800,https://peelchildcare.cioc.ca/record/CDR0852,School-Based Centre,Yes,9,308788
-8870846.9532,5432929.0658,88,CC-PLP-233,Castlemore (PLASP),Social Services,Child Care (PLASP),Child Care Centre,9916 The Gore Rd,,Brampton,ON,L6P 0A7,905-913-0845,https://peelchildcare.cioc.ca/record/CDR1358?Number=216,School-Based Centre,Yes,8,184301
-8874081.2738,5424671.0454,89,CC-YMC-070,Central Park (YMCA),Social Services,Child Care (YMCA),Child Care Centre,1100 Central Park Dr,,Brampton,ON,L6S 2C9,905-793-5970,https://peelchildcare.cioc.ca/record/CDR0382,Community-Based Non-Profit Centre,No,8,167829
-8868502.0397,5394943.3519,90,CC-PLP-017,Centre Educatif Eveil aux Savoirs (Saint Jean Baptiste),Social Services,Child Care (French),Child Care Centre,1910 Broad Hollow Gate,,Mississauga,ON,L5L 3T4,905-569-8161,https://peelchildcare.cioc.ca/record/CDR0325,School-Based Centre,Yes,8,
-8869747.8162,5404317.7334,91,CC-YMC-014,Champlain Trail (YMCA),Social Services,Child Care (YMCA),Child Care Centre,895 Ceremonial Dr,,Mississauga,ON,L5R 3B5,905-507-1058,https://peelchildcare.cioc.ca/record/CDR0498,School-Based Centre,Yes,5,
-8874921.9429,5412065.1487,92,CC-FDC-007,Cherrytree (Family Day Care),Social Services,Child Care (Family Day),Child Care Centre,155 Cherrytree Dr,,Brampton,ON,L6Y 3M9,416-922-3434,https://peelchildcare.cioc.ca/record/CDR0458,School-Based Centre,Yes,4,57223
-8879115.8496,5416658.077,93,CC-OTH-323,Cherubs Cove Montessori Child Care Inc. Downtown Brampton Campus,Social Services,Child Care (Other),Child Care Centre,104 Queen St W,,Brampton,ON,L6X1A4,905-451-0575,https://peelchildcare.cioc.ca/record/CDR1449,Community-Based For-Profit Centre,No,1,444687
-8872593.4426,5427896.9131,94,CC-OTH-201,Children's Choice Day Care Inc.,Social Services,Child Care (Other),Child Care Centre,2021 Williams Pky E,"5,6",Brampton,ON,L6S 5P4,905-789-1716,https://peelchildcare.cioc.ca/record/CDR0392,Community-Based For-Profit Centre,No,8,310714
-8884693.374,5416778.8093,95,CC-OTH-242,Children's Circle Montessori School,Social Services,Child Care (Other),Child Care Centre,35 Brisdale Dr,,Brampton,ON,L7A 0S9,905-609-6900,https://peelchildcare.cioc.ca/record/CDR0972,Community-Based For-Profit Centre,No,6,257534
-8876252.3005,5403597.0855,96,CC-OTH-364,Children's Learning Garden Inc.,Social Services,Child Care (Other),Child Care Centre,6521 Mississauga Rd,Suite A,Mississauga,ON,L5N1A6,905-821-3424,https://peel.cioc.ca/record/CDR1753?Number=39,Community-Based For-Profit Centre,No,11,321150
-8863912.4157,5389534.1773,97,CC-OTH-004,Children's Palace Montessori and Pre-school,Social Services,Child Care (Other),Child Care Centre,820 Southdown Rd,,Mississauga,ON,L5J 2Y4,905-823-3317,https://peelchildcare.cioc.ca/record/CDR0572,Community-Based For-Profit Centre,No,2,49511
-8877647.3889,5405101.9761,98,CC-OTH-238,Childventures Meadowvale Early Learning Academy Inc.,Social Services,Child Care (Other),Child Care Centre,7030 Royal Bank Dr,,Mississauga,ON,L5N 0B6,905-816-1515,https://peelchildcare.cioc.ca/record/CDR0552,Community-Based For-Profit Centre,No,11,
-8864949.1289,5400260.4025,99,CC-YMC-074,Chris Hadfield (YMCA),Social Services,Child Care (YMCA),Child Care Centre,465 Fairview Rd,,Mississauga,ON,L5B 3W7,905-276-9322 ext 202,https://peelchildcare.cioc.ca/record/CDR1357,School-Based Centre,Yes,7,396714
-8871627.4225,5392086.8739,100,CC-PLP-005b,Christ the King (PLASP),Social Services,Child Care (PLASP),Child Care Centre,3240 Garthwood Rd,,Mississauga,ON,L5L 5A3,905-890-1711,https://peelchildcare.cioc.ca/record/CDR0475,School-Based Centre,Yes,8,
-8871668.4144,5392087.5191,101,CC-PLP-005a,Christ the King Early Learning Centre (PLASP),Social Services,Child Care (PLASP),Child Care Centre,3240 Garthwood Rd,,Mississauga,ON,L5L 5A3,905-890-1711,https://peelchildcare.cioc.ca/record/CDR0928,School-Based Centre,No,8,272768
-8877458.2606,5397506.4782,102,CC-YMC-006,Churchill Meadows (YMCA),Social Services,Child Care (YMCA),Child Care Centre,3310 McDowell Dr,,Mississauga,ON,L6R 6R8,416-300-7744,https://peelchildcare.cioc.ca/record/CDR0861,School-Based Centre,Yes,10,287575
-8881126.0938,5412375.25,103,CC-YMC-079,Churchville (YMCA),Social Services,Child Care (YMCA),Child Care Centre,90 Bonnie Braes Dr,,Brampton,ON,L6Y 0Y3,905-943-9622,https://peelchildcare.cioc.ca/record/CDR1398,School-Based Centre,Yes,4,329223
-8880535.2685,5403540.6022,104,CC-OTH-096,Circle of Children Academy,Social Services,Child Care (Other),Child Care Centre,2850 Argentia Rd ,9,Mississauga,ON,L5N 8G4,905-826-4184,https://peelchildcare.cioc.ca/record/CDR0581,Community-Based For-Profit Centre,No,9,
-8868927.9641,5430143.5312,105,CC-PLP-208,Claireville (PLASP),Social Services,Child Care (PLASP),Child Care Centre,97 Gallucci Cres,,Brampton,ON,L6P 1R6,905-890-1711,https://peelchildcare.cioc.ca/record/CDR0788,School-Based Centre,Yes,8,304568
-8874201.2343,5421404.7106,106,CC-PLP-135,Clark Blvd. (PLASP),Social Services,Child Care (PLASP),Child Care Centre,201 Clark Blvd,,Brampton,ON,L6T 2C9,905-890-1711,https://peelchildcare.cioc.ca/record/CDR0784,School-Based Centre,Yes,7,190080
-8863387.8406,5390551.571,107,CC-PLP-239,Clarkson (PLASP),Social Services,Child Care (PLASP),Child Care Centre,888 Clarkson Rd S,,Mississauga,ON,L5J 2B9,905-890-1711,https://peelchildcare.cioc.ca/record/CDR0661,School-Based Centre,Yes,2,44821
-8865370.9114,5392862.3646,108,CC-OTH-286,Clarkson Angels Child Care and Educational Centre (North),Social Services,Child Care (Other),Child Care Centre,1603 Clarkson Rd,"1,2,3",Mississauga,ON,L5J 2X1,905-823-1603,https://peelchildcare.cioc.ca/record/CDR1299,Community-Based For-Profit Centre,No,2,39920
-8864134.7605,5391404.6726,109,CC-OTH-243,Clarkson Angels Child Care and Educational Centre (South),Social Services,Child Care (Other),Child Care Centre,1146 Clarkson Rd N,,Mississauga,ON,L5J 2W1,905-855-1146,https://peelchildcare.cioc.ca/record/CDR0887,Community-Based For-Profit Centre,No,2,
-8864674.3023,5392402.631,110,CC-OTH-017,Clarkson Co-operative Nursery School,Social Services,Child Care (Other),Child Care Centre,1700 Mazo Cres,,Mississauga,ON,L5J 1Y9,905-855-2106,https://peelchildcare.cioc.ca/record/CDR0569,Community-Based Non-Profit Centre,No,2,139678
-8861167.38,5401290.2225,111,CC-PLP-177,Clifton (PLASP),Social Services,Child Care (PLASP),Child Care Centre,2389 Cliff Rd,,Mississauga,ON,L5A 2P1,905-890-1711,https://peelchildcare.cioc.ca/record/CDR0991,School-Based Centre,Yes,7,118130
-8874698.2641,5436921.0292,112,CC-OTH-329,Closer II Home Programs,Social Services,Child Care (Other),Child Care Centre,10 Squire Ellis Dr,,Brampton,ON,L6P 4K6,905-794-9173,https://peelchildcare.cioc.ca/record/CDR1471,Community-Based For-Profit Centre,No,10,419925
-8867685.9823,5432059.3058,113,CC-OTH-212,Closer to Home Child Care,Social Services,Child Care (Other),Child Care Centre,3955 Cottrelle Blvd ,"5,6,7",Brampton,ON,L6P 2P9,905-913-0144,https://peelchildcare.cioc.ca/record/CDR0396,Community-Based For-Profit Centre,No,10,262032
-8876496.0274,5412411.2423,114,CC-FDC-029,Collegeside Early Learning Centre (Family Day Care),Social Services,Child Care (Family Day),Child Care Centre,7899 McLaughlin Rd ,,Brampton,ON,L6V 1G6,905-450-1996,https://peelchildcare.cioc.ca/record/CDR0428,Community-Based Non-Profit Centre,No,4,271146
-8880321.0282,5401714.6,115,CC-OTH-315,Colors at Danton,Social Services,Child Care (Other),Child Care Centre,7025 Danton Prom,7,Mississauga,ON,L5N 5N4,905-824-7922,https://peelchildcare.cioc.ca/record/CDR1416,Community-Based For-Profit Centre,No,9,
-8881773.3379,5421475.8044,116,CC-PLP-134,Conestoga (PLASP),Social Services,Child Care (PLASP),Child Care Centre,300 Conestoga Dr,,Brampton,ON,L6Z 3M1,905-890-1711,https://peelchildcare.cioc.ca/record/CDR0755,School-Based Centre,Yes,2,185767
-8867610.8873,5404818.3487,117,CC-PLP-087,Cooksville Creek (PLASP),Social Services,Child Care (PLASP),Child Care Centre,5100 Salishan Cir,,Mississauga,ON,L5R 3E3,905-890-1711,https://peelchildcare.cioc.ca/record/CDR0713,School-Based Centre,Yes,5,296969
-8879154.6139,5411490.0593,118,CC-PLP-178,Copeland (PLASP),Social Services,Child Care (PLASP),Child Care Centre,5 Young Dr,,Brampton,ON,L6Y 0P4,905-890-1711,https://peelchildcare.cioc.ca/record/CDR0789,School-Based Centre,Yes,4,250527
-8865043.5738,5423368.6891,119,CC-PLP-179,Corliss (PLASP),Social Services,Child Care (PLASP),Child Care Centre,3730 Corliss Cres,,Mississauga,ON,L4T 2Z4,905-890-1711,https://peelchildcare.cioc.ca/record/CDR1041,School-Based Centre,No,5,62527
-8866872.4127,5401451.5075,120,CC-YMC-060,Corpus Christi (YMCA),Social Services,Child Care (YMCA),Child Care Centre,4155 Elora Dr,,Mississauga,ON,L6X 0E1,905-890-1711,https://peelchildcare.cioc.ca/record/CDR1353,School-Based Centre,Yes,4,230553
-8860981.5948,5400406.8269,121,CC-PLP-053,Corsair (PLASP),Social Services,Child Care (PLASP),Child Care Centre,2230 Corsair Rd,,Mississauga,ON,L5A 2L9,905-890-1711,https://peelchildcare.cioc.ca/record/CDR0685,School-Based Centre,No,7,259398
-8873801.8545,5443811.8719,122,CC-OTH-219,Countryside Montessori and Private School,Social Services,Child Care (Other),Child Care Centre,1 Loring Dr,,Caledon,ON,L7E 1Y1,905-951-3359,https://peelchildcare.cioc.ca/record/CAL0058,Community-Based For-Profit Centre,No,5,287039
-8881336.1096,5428191.3986,123,CC-OTH-306,Countryside Village (PEAL Centres),Social Services,Child Care (Other),Child Care Centre,40 Dolbyhill Dr,,Brampton,ON,L6R 3V8,905-796-4467,https://peelchildcare.cioc.ca/record/CDR1403,School-Based Centre,Yes,9,423161
-8872624.8788,5442706.0638,124,CC-OTH-244,Creative Children's Montessori School,Social Services,Child Care (Other),Child Care Centre,16 Parr Blvd,,Caledon,ON,L7E 4H1,905-951-8606,https://peelchildcare.cioc.ca/record/CAL0268,Community-Based For-Profit Centre,No,5,293753
-8872921.7992,5396754.1734,125,CC-YMC-005,Credit Valley (YMCA),Social Services,Child Care (YMCA),Child Care Centre,2365 Credit Valley Rd,,Mississauga,ON,L5M 4G8,905-828-9295,https://peelchildcare.cioc.ca/record/CDR0499,School-Based Centre,Yes,8,294541
-8874737.1572,5409982.2916,126,CC-YMC-027,Derry West Village (YMCA),Social Services,Child Care (YMCA),Child Care Centre,620 Twain Ave,,Mississauga,ON,L5W 1M1,1-647-273-3514,https://peelchildcare.cioc.ca/record/CDR1090,School-Based Centre,Yes,11,304035
-8881509.9598,5400020.6225,127,CC-YMC-010,Derry Woods YMCA,Social Services,Child Care (YMCA),Child Care Centre,6970 Lisgar Dr,,Mississauga,ON,L5N 8C8,905-824-3692,https://peelchildcare.cioc.ca/record/CDR0559,Community-Based Non-Profit Centre,No,10,
-8880882.6619,5398924.074,128,CC-OTH-246,Discovery Montessori - Ninth Line Campus (The),Social Services,Child Care (Other),Child Care Centre,6553 Ninth Line,,Mississauga,ON,L5N 7B9,905-824-9246,https://peelchildcare.cioc.ca/record/CDR0594,Community-Based For-Profit Centre,No,10,160110
-8874851.9565,5397573.1049,129,CC-PLP-029,Divine Mercy (PLASP),Social Services,Child Care (PLASP),Child Care Centre,2840 Duncairn Dr,,Mississauga,ON,L5M 5C6,905-890-1711,https://peelchildcare.cioc.ca/record/CDR0707,School-Based Centre,Yes,9,284143
-8860615.0505,5404991.7022,130,CC-PLP-091,Dixie (PLASP),Social Services,Child Care (PLASP),Child Care Centre,1120 Flagship Dr,,Mississauga,ON,L4Y 2K1,905-890-1711,https://peelchildcare.cioc.ca/record/CDR0686,School-Based Centre,Yes,3,109716
-8889284.0194,5418008.8633,131,CC-YMC-081,Dolson (YMCA),Social Services,Child Care (YMCA),Child Care Centre,90 Remembrance Rd,,Brampton,ON,L7A 0A7,647-990-3338,https://peelchildcare.cioc.ca/record/CDR1650,School-Based Centre,Yes,6,
-8872049.5308,5421610.6276,132,CC-PLP-137,Dorset Drive (PLASP),Social Services,Child Care (PLASP),Child Care Centre,100 Dorset Dr,,Brampton,ON,L6T 2Y9,905-890-1711,https://peelchildcare.cioc.ca/record/CDR0745,School-Based Centre,Yes,7,68794
-8864450.4801,5422678.0179,133,CC-PLP-180,Dunrankin Drive (PLASP),Social Services,Child Care (PLASP),Child Care Centre,3700 Dunrankin Dr,,Mississauga,ON,L4T 1V9,905-890-1711,https://peelchildcare.cioc.ca/record/CDR1138,School-Based Centre,Yes,5,16709
-8879745.7903,5417993.2616,134,CC-OTH-366,EYE Childcare Brampton 320,Social Services,Child Care (Other),Child Care Centre,320 Main St N,14,Brampton,ON,L6V4A3,905-459-5439,https://peel.cioc.ca/record/CDR1796,Community-Based For-Profit Centre,No,1,314876
-8876896.5458,5430458.5836,135,CC-PLP-209,Eagle Plains (PLASP),Social Services,Child Care (PLASP),Child Care Centre,40 Eagle Plains Dr,,Brampton,ON,L6R 2X8,905-890-1711,https://peelchildcare.cioc.ca/record/CDR0796,School-Based Centre,No,10,309520
-8875902.7978,5445816.6598,136,CC-OTH-355,Early Learners' Montessori School - Bolton,Social Services,Child Care (Other),Child Care Centre,81 Ellwood Dr W,,Caledon,ON,L7E 4W8,905-857-1700,https://peel.cioc.ca/record/CDR1751,Community-Based For-Profit Centre,No,5,254536
-8868157.9746,5395455.7235,137,CC-OTH-035,Early Learning Centre - University of Toronto-Mississauga (UTM),Social Services,Child Care (Other),Child Care Centre,3359 Mississauga Rd,,Mississauga,ON,L5C 1C6,905-569-4422,https://peelchildcare.cioc.ca/record/CDR0496,Community-Based Non-Profit Centre,No,8,
-8871741.7676,5422501.0858,138,CC-PLP-142,Eastbourne (PLASP),Social Services,Child Care (PLASP),Child Care Centre,702 Balmoral Dr,,Brampton,ON,L6T 1X3,905-890-1711,https://peelchildcare.cioc.ca/record/CDR0743,School-Based Centre,Yes,7,241601
-8878843.0338,5400570.4494,139,CC-OTH-055,Eden Day Care Inc.,Social Services,Child Care (Other),Child Care Centre,3051 Battleford Rd,,Mississauga,ON,L5N 5Z9,905-824-5153,https://peelchildcare.cioc.ca/record/CDR0519,Community-Based Non-Profit Centre,No,9,12007
-8884221.2626,5418461.5734,140,CC-YMC-018,Edenbrook Hill (YMCA),Social Services,Child Care (YMCA),Child Care Centre,61 Edenbrook Hill Dr,,Brampton,ON,L7A 1X6,905-451-1400 ext 483,https://peelchildcare.cioc.ca/record/CDR0732,School-Based Centre,Yes,6,248807
-8869455.1093,5400559.4545,141,CC-PLP-052b,Edenrose (PLASP),Social Services,Child Care (PLASP),Child Care Centre,1342 Edenrose St,,Mississauga,ON,L5V 1K9,905-890-1711,https://peelchildcare.cioc.ca/record/CDR0708,School-Based Centre,Yes,6,272734
-8869456.5877,5400523.785,142,CC-PLP-052a,Edenrose Early Learning Centre (PLASP),Social Services,Child Care (PLASP),Child Care Centre,1342 Edenrose St,,Mississauga,ON,L5V 1K9,905-890-1711,https://peelchildcare.cioc.ca/record/CDR0555,School-Based Centre,No,6,
-8860013.1768,5406998.3386,143,CC-OTH-126,Educare Children's Centre,Social Services,Child Care (Other),Child Care Centre,1615 Bloor St,,Mississauga,ON,L4X 1S2,905-625-7871,https://peelchildcare.cioc.ca/record/CDR0444,Community-Based Non-Profit Centre,No,3,239153
-8876405.0635,5416943.3248,144,CC-OTH-349,Eh to Zed Preschool Canada Early Learning Academy,Social Services,Child Care (Other),Child Care Centre,17 Dean St,,Brampton,ON,L6W 1M7,647-302-8553,https://peelchildcare.cioc.ca/record/CDR1712,Community-Based For-Profit Centre,No,3,46608
-8867633.3427,5429397.3066,145,CC-OTH-301,Eh to Zed Preschool Canada Learning Academy,Social Services,Child Care (Other),Child Care Centre,8814 The Gore Rd,1,Brampton,ON,L6P 0B1,905-794-2929,https://peelchildcare.cioc.ca/record/CDR1392,Community-Based For-Profit Centre,No,8,419973
-8881011.9467,5409136.6443,146,CC-FDC-025,Eldorado (Family Day Care),Social Services,Child Care (Family Day),Child Care Centre,25 Wardsville Dr,,Brampton,ON,L5H 3J1,905-890-1711,https://peelchildcare.cioc.ca/record/CDR1329,School-Based Centre,Yes,4,275349
-8875878.0076,5403245.2492,147,CC-OTH-100,Elite Montessori School,Social Services,Child Care (Other),Child Care Centre,6395 Mississauga Rd,,Mississauga,ON,L5N 1A5,905-567-6600,https://peelchildcare.cioc.ca/record/CDR0544,Community-Based For-Profit Centre,No,11,351151
-8867614.2421,5398122.9249,148,CC-FDC-028,Ellengale (Family Day Care),Social Services,Child Care (Family Day),Child Care Centre,3480 Ellengale Dr,,Mississauga,ON,L5C 1Z7,905-279-1555,https://peelchildcare.cioc.ca/record/CDR1035,School-Based Centre,Yes,6,23756
-8875426.7424,5446155.0471,149,CC-YMC-023,Ellwood (YMCA),Social Services,Child Care (YMCA),Child Care Centre,35 Ellwood Dr E,,Caledon,ON,L7E 2A7,416-454-5535,https://peelchildcare.cioc.ca/record/CDR0600,School-Based Centre,Yes,5,350922
-8869403.4906,5394049.2716,150,CC-OTH-024,Erin Mills Co-Op Nursery,Social Services,Child Care (Other),Child Care Centre,2264 Council Ring Rd,,Mississauga,ON,L5L 1B7,905-820-5599,https://peelchildcare.cioc.ca/record/CDR0467,Community-Based Non-Profit Centre,No,8,308060
-8865907.5236,5397170.7947,151,CC-OTH-361,Erindale Early Education Academy,Social Services,Child Care (Other),Child Care Centre,1133 Dundas St W,,Mississauga,ON,L5C1C4,905-803-1133,https://peel.cioc.ca/record/CDR1783?Number=0,Community-Based For-Profit Centre,No,6,311315
-8880773.2992,5424162.2161,152,CC-FDC-036,Esker Lake Early Learning and Child Care Centre,Social Services,Child Care (Family Day),Child Care Centre,10420 Heart Lake Rd,,Brampton,ON,L6Z 4S2,905-840-5442,https://peelchildcare.cioc.ca/record/CDR0405?Number=7,School-Based Centre,Yes,2,259836
-8859629.4788,5398199.6773,153,CC-OTH-016,Eureka Kids,Social Services,Child Care (Other),Child Care Centre,130 Mineola Rd E,,Mississauga,ON,L5G 2E7,905-838-0209,https://peelchildcare.cioc.ca/record/CDR0588,Community-Based For-Profit Centre,No,1,
-8859653.6303,5395850.7054,154,CC-OTH-034,FUN School,Social Services,Child Care (Other),Child Care Centre,44 Port St W,,Mississauga,ON,L5H 1C9,905-274-4386,https://peelchildcare.cioc.ca/record/CDR0586,Community-Based Non-Profit Centre,No,1,
-8875045.9806,5429599.4049,155,CC-FDC-013,Fairlawn (Family Day Care),Social Services,Child Care (Family Day),Child Care Centre,40 Fairlawn Blvd,,Brampton,ON,L6P 2X4,416-922-3434,https://peelchildcare.cioc.ca/record/CDR1033,School-Based Centre,Yes,2,390124
-8865124.9326,5402000.6647,156,CC-PLP-068,Fairview (PLASP),Social Services,Child Care (PLASP),Child Care Centre,3590 Joan Dr,,Mississauga,ON,L5B 1T8,905-890-1711,https://peelchildcare.cioc.ca/record/CDR0688,School-Based Centre,Yes,7,266407
-8868385.8722,5404593.3082,157,CC-PLP-228,Fairwind Early Early Learning Centre (PLASP),Social Services,Child Care (PLASP),Child Care Centre,5235 Fairwind Dr,,Mississauga,ON,L5R 3L2,905-712-4077,https://peelchildcare.cioc.ca/record/CDR0556,School-Based Centre,No,5,308594
-8875440.242,5404041.0252,158,CC-YMC-072,Falconer (YMCA),Social Services,Child Care (YMCA),Child Care Centre,114 Falconer Dr,,Mississauga,ON,L5N 1B4,905-813-1944,https://peelchildcare.cioc.ca/record/CDR0536,Community-Based Non-Profit Centre,No,11,
-8873267.772,5422676.2953,159,CC-PLP-181,Fallingdale (PLASP),Social Services,Child Care (PLASP),Child Care Centre,510 Clark Blvd,,Brampton,ON,L6T 2E4,905-890-1711,https://peelchildcare.cioc.ca/record/CDR1051,School-Based Centre,Yes,8,181497
-8873065.0256,5444380.7434,160,CC-OTH-341,Family Tree Child Care Centre Ltd.,Social Services,Child Care (Other),Child Care Centre,194 McEwan Dr E,2,Caledon,ON,L7E 4E5,905-951-7878,https://peelchildcare.cioc.ca/record/CDR1640,Community-Based For-Profit Centre,No,5,19283
-8877390.93,5420072.0424,161,CC-PLP-129,Father C.W. Sullivan (PLASP),Social Services,Child Care (PLASP),Child Care Centre,62 Seaborn Rd,,Brampton,ON,L6V 2C1,905-890-1711,https://peelchildcare.cioc.ca/record/CDR0749,School-Based Centre,No,1,63600
-8875691.8831,5429123.6331,162,CC-PLP-167,Father Clair Tipping (PLASP),Social Services,Child Care (PLASP),Child Care Centre,25 Mountainberry Rd,,Brampton,ON,L6R 1J3,905-890-1711,https://peelchildcare.cioc.ca/record/CDR0741,School-Based Centre,Yes,10,267845
-8864429.7275,5399585.2033,163,CC-PLP-210,Father Daniel Zanon (PLASP),Social Services,Child Care (PLASP),Child Care Centre,450 Hillcrest Ave,,Mississauga,ON,L5B 4J3,905-890-1711,https://peelchildcare.cioc.ca/record/CDR0679,School-Based Centre,Yes,7,323755
-8871983.3947,5430624.6277,164,CC-YMC-028,Father Francis McSpiritt (YMCA),Social Services,Child Care (YMCA),Child Care Centre,55 Lexington Rd,,Brampton,ON,L6P 2B1,905-451-1400 ext 483,https://peelchildcare.cioc.ca/record/CDR0847,School-Based Centre,Yes,8,287917
-8865140.0631,5400966.3105,165,CC-PLP-060,Father Michael Goetz Early Learning Centre (PLASP),Social Services,Child Care (PLASP),Child Care Centre,330 Central Pky W,,Mississauga,ON,L5B 3K6,905-615-0236,https://peelchildcare.cioc.ca/record/CDR0483,School-Based Centre,No,7,
-8878596.9532,5426286.6525,166,CC-PLP-162,Fernforest (PLASP),Social Services,Child Care (PLASP),Child Care Centre,275 Fernforest Dr,,Brampton,ON,L6R 1L9,905-890-1711,https://peelchildcare.cioc.ca/record/CDR0762,School-Based Centre,Yes,9,218160
-8877689.7148,5423758.1107,167,CC-OTH-248,First Friends Preschool and Daycare,Social Services,Child Care (Other),Child Care Centre,860 North Park Dr ,12,Brampton,ON,L6S 4N5,905-457-8444,https://peelchildcare.cioc.ca/record/CDR0806,Community-Based For-Profit Centre,No,7,293523
-8875550.2939,5412722.7658,168,CC-OTH-144,Fletcher's Creek (Fletcher's Creek Children's Centre),Social Services,Child Care (Other),Child Care Centre,92 Malta Ave,,Brampton,ON,L6Y 4C8,905-452-9299,https://peelchildcare.cioc.ca/record/CDR0407,School-Based Centre,Yes,4,200725
-8862770.7758,5399379.6528,169,CC-PLP-043,Floradale (PLASP),Social Services,Child Care (PLASP),Child Care Centre,210 Paisley Blvd W,,Mississauga,ON,L5B 2A4,905-890-1711,https://peelchildcare.cioc.ca/record/CDR0695,School-Based Centre,Yes,7,23062
-8872899.5073,5423765.2554,170,CC-PLP-152,Folkstone (PLASP),Social Services,Child Care (PLASP),Child Care Centre,104 Folkstone Cres,,Brampton,ON,L6T 3M5,905-890-1711,https://peelchildcare.cioc.ca/record/CDR0747,School-Based Centre,Yes,8,187846
-8859058.3852,5397299.8828,171,CC-PLP-028,Forest Ave. (PLASP),Social Services,Child Care (PLASP),Child Care Centre,20 Forest Ave,,Mississauga,ON,L5G 1K7,905-890-1711,https://peelchildcare.cioc.ca/record/CDR0836,School-Based Centre,Yes,1,138997
-8859806.9946,5407954.102,172,CC-PLP-102,Forest Glen (PLASP),Social Services,Child Care (PLASP),Child Care Centre,3400 Ponytrail Dr,,Mississauga,ON,L4X 1V5,905-890-1711,https://peelchildcare.cioc.ca/record/CDR0687,School-Based Centre,Yes,3,28640
-8866674.0099,5405589.8714,173,CC-OTH-113,Forum Italia,Social Services,Child Care (Other),Child Care Centre,195 Forum Dr,,Mississauga,ON,L4Z 3M5,905-507-2713,https://peelchildcare.cioc.ca/record/CDR0503,Community-Based Non-Profit Centre,No,5,
-8876233.5668,5404208.0135,174,CC-OTH-104,Fun to Learn Montessori,Social Services,Child Care (Other),Child Care Centre,1840 Argentia Rd,,Mississauga,ON,L5N 1P9,905-812-9606,https://peelchildcare.cioc.ca/record/CDR0547,Community-Based For-Profit Centre,No,11,275331
-8865259.5963,5396545.8729,175,CC-OTH-321,Fun to Learn Montessori - Erindale,Social Services,Child Care (Other),Child Care Centre,2438 Glengarry Rd,,Mississauga,ON,L5C 1Y2,905-276-9606,https://peelchildcare.cioc.ca/record/CDR1443,Community-Based For-Profit Centre,No,7,218609
-8873922.9037,5408746.4331,176,CC-OTH-331,Garderie Cercle de l'amitie Mississauga (Le Flambeau),Social Services,Child Care (French),Child Care Centre,600 Novo Star Dr,,Mississauga,ON,L5W 1G4,905-403-1587,https://peelchildcare.cioc.ca/record/CDR1484,School-Based Centre,Yes,11,398715
-8880194.293,5420213.8739,177,CC-OTH-172,Garderie Du Cercle De L'Amitie (Carrefour des Jeunes),Social Services,Child Care (French),Child Care Centre,375 Centre St N,,Brampton,ON,L6V 4N4,905-459-8008,https://peelchildcare.cioc.ca/record/MAL0127,School-Based Centre,Yes,1,297672
-8866014.8194,5390954.9439,178,CC-OTH-343,Garderie La Fontaine de l'Amitie,Social Services,Child Care (Other),Child Care Centre,1445 Lewisham Dr,,Mississauga,ON,L5J 3R2,647-834-5503,https://peelchildcare.cioc.ca/record/CDR1652,School-Based Centre,Yes,2,41564
-8871399.2655,5392042.6756,179,CC-YMC-002,Garthwood Park (YMCA),Social Services,Child Care (YMCA),Child Care Centre,3245 Colonial Dr,,Mississauga,ON,L5L 4K3,905-607-2670,https://peelchildcare.cioc.ca/record/CDR0469,School-Based Centre,Yes,8,
-8873448.1018,5423383.9659,180,CC-PLP-150,Georges Vanier (PLASP),Social Services,Child Care (PLASP),Child Care Centre,28 Finchgate Blvd,,Brampton,ON,L6T 3H9,905-890-1711,https://peelchildcare.cioc.ca/record/CDR0764,School-Based Centre,Yes,8,172608
-8867081.1674,5430673.3429,181,CC-OTH-278,Giant Leap,Social Services,Child Care (Other),Child Care Centre,8930 Hwy 50,,Brampton,ON,L6P 3A5,647-367-9321,https://peelchildcare.cioc.ca/record/CDR1130,Community-Based For-Profit Centre,Yes,8,336421
-8880678.8731,5417196.9959,182,CC-PLP-120,Glendale (PLASP),Social Services,Child Care (PLASP),Child Care Centre,35 Sunset Blvd,,Brampton,ON,L6X 1X1,905-890-1711,https://peelchildcare.cioc.ca/record/CDR0757,School-Based Centre,Yes,1,231024
-8861979.166,5404178.2146,183,CC-OTH-105,Glenroy Preschool Centre,Social Services,Child Care (Other),Child Care Centre,755 Bloor St,,Mississauga,ON,L4Y 2M7,905-277-3323,https://peelchildcare.cioc.ca/record/CDR0448,Community-Based For-Profit Centre,No,3,
-8874489.3791,5423753.4002,184,CC-YMC-030,Goldcrest (YMCA),Social Services,Child Care (YMCA),Child Care Centre,24 Goldcrest Rd,,Brampton,ON,L6S 1G3,905-943-9622 ext 750,https://peelchildcare.cioc.ca/record/CDR1056,School-Based Centre,Yes,8,77366
-8861921.239,5406589.6892,185,CC-OTH-120,Golden Orchard Montessori School,Social Services,Child Care (Other),Child Care Centre,1170 Tynegrove Rd,,Mississauga,ON,L4W 3B2,905-629-7555,https://peelchildcare.cioc.ca/record/CDR0447,Community-Based For-Profit Centre,No,3,30726
-8877341.3792,5427807.6541,186,CC-PLP-166,Good Shepherd (PLASP),Social Services,Child Care (PLASP),Child Care Centre,28 Red River Dr,,Brampton,ON,L6R 2H9,905-890-1711,https://peelchildcare.cioc.ca/record/CDR0772,School-Based Centre,Yes,9,329656
-8879746.2765,5424784.4559,187,CC-YMC-055,Great Lakes (YMCA),Social Services,Child Care (YMCA),Child Care Centre,285 Great Lakes Dr,,Brampton,ON,L6R 2R8,905-451-1400 ext 483,https://peelchildcare.cioc.ca/record/CDR0892,School-Based Centre,Yes,9,279800
-8874104.6656,5425007.2644,188,CC-YMC-031,Grenoble (YMCA),Social Services,Child Care (YMCA),Child Care Centre,33 Greenbriar Rd,,Brampton,ON,L6S 1V8,905-943-9622 ext 750,https://peelchildcare.cioc.ca/record/CDR1055,School-Based Centre,Yes,8,177206
-8885455.2362,5417065.3561,189,CC-PLP-119,Guardian Angels (PLASP),Social Services,Child Care (PLASP),Child Care Centre,62 Heatherdale Dr,,Brampton,ON,L7A 2H4,905-890-1711,https://peelchildcare.cioc.ca/record/CDR0776,School-Based Centre,Yes,6,225169
-8876441.4497,5403483.6947,190,CC-OTH-324,Hakuna Matata Child Care Centre Inc.,Social Services,Child Care (Other),Child Care Centre,6549 Mississauga Rd,A&B,Mississauga,ON,L5N 1A6,905-542-0005,https://peelchildcare.cioc.ca/record/CDR1450,Community-Based For-Profit Centre,No,11,297610
-8875387.5361,5422034.4461,191,CC-PLP-139,Hanover (PLASP),Social Services,Child Care (PLASP),Child Care Centre,215 Hanover Rd,,Brampton,ON,L6S 1B6,905-890-1711,https://peelchildcare.cioc.ca/record/CDR0750,School-Based Centre,Yes,7,55521
-8863913.1395,5401624.7808,192,CC-YMC-068,Hanson Road (YMCA),Social Services,Child Care (YMCA),Child Care Centre,30 Hanson Rd,,Mississauga,ON,L5B 3A7,905-270-4137,https://peelchildcare.cioc.ca/record/CDR0446,Community-Based Non-Profit Centre,No,7,4788
-8877366.1225,5419798.5038,193,CC-OTH-169,Happy Life Centre,Social Services,Child Care (Other),Child Care Centre,68 Rutherford Rd N,,Brampton,ON,L6V 2J1,905-457-1581,https://peelchildcare.cioc.ca/record/CDR0408,Community-Based Non-Profit Centre,No,1,
-8877458.7825,5420456.6933,194,CC-YMC-061,Harold F. Loughlin (YMCA),Social Services,Child Care (YMCA),Child Care Centre,39 Herkley Dr,,Brampton,ON,L5B 2M4,1-866-943-9622,https://peelchildcare.cioc.ca/record/CDR1162,School-Based Centre,Yes,1,390045
-8864914.8585,5397272.8576,195,CC-PLP-027,Hawthorn (PLASP),Social Services,Child Care (PLASP),Child Care Centre,2473 Rosemary Dr,,Mississauga,ON,L5C 1X1,905-890-1711,https://peelchildcare.cioc.ca/record/CDR0649,School-Based Centre,Yes,7,121196
-8877962.5339,5403094.6673,196,CC-OTH-250,Hearts in Bloom Academy,Social Services,Child Care (Other),Child Care Centre,6785 Millcreek Dr,,Mississauga,ON,L5N 5M4,905-785-2671,https://peelchildcare.cioc.ca/record/CDR0532,Community-Based Non-Profit Centre,No,9,
-8876751.0925,5416280.8899,197,CC-PLP-221,Helen Wilson (PLASP),Social Services,Child Care (PLASP),Child Care Centre,9 Abbey Rd,,Brampton,ON,L5G 1B8,1-866-317-6251,https://peelchildcare.cioc.ca/record/CDR1275,School-Based Centre,Yes,3,55463
-8890236.6647,5432520.5369,198,CC-YMC-075,Herb Campbell (YMCA),Social Services,Child Care (YMCA),Child Care Centre,3749 King St,,Caledon,ON,L0N 1K0,905-857-3531 ext 310,https://peelchildcare.cioc.ca/record/CDR1360,School-Based Centre,Yes,2,79238
-8878837.6242,5429348.2444,199,CC-PLP-234,Hewson (PLASP),Social Services,Child Care (PLASP),Child Care Centre,235 Father Tobin Rd,,Brampton,ON,L6R 0G2,905-890-1711,https://peelchildcare.cioc.ca/record/CDR1359,School-Based Centre,Yes,9,296211
-8876981.2956,5410912.9583,200,CC-FDC-006,Hickory Wood (Family Day Care),Social Services,Child Care (Family Day),Child Care Centre,630 Ray Lawson Blvd,,Brampton,ON,L6Y 4W8,416-922-3434,https://peelchildcare.cioc.ca/record/CDR0409,School-Based Centre,Yes,4,
-8875309.5808,5423631.4553,201,CC-PLP-151,Hilldale (PLASP),Social Services,Child Care (PLASP),Child Care Centre,100 Hilldale Cres,,Brampton,ON,L6S 2N3,905-890-1711,https://peelchildcare.cioc.ca/record/CDR0752,School-Based Centre,Yes,7,278004
-8866205.8551,5389761.2163,202,CC-YMC-080,Hillside (YMCA),Social Services,Child Care (YMCA),Child Care Centre,1290 Kelly Rd,,Mississauga,ON,L5J 3V1,647-920-6883,https://peelchildcare.cioc.ca/record/CDR1427,School-Based Centre,Yes,2,
-8865123.6937,5422960.4445,203,CC-PLP-146,Holy Cross (PLASP),Social Services,Child Care (PLASP),Child Care Centre,3615 Morning Star Dr,,Mississauga,ON,L4T 1Y4,905-890-1711,https://peelchildcare.cioc.ca/record/CDR0656,School-Based Centre,Yes,5,95191
-8875102.4258,5445914.1029,204,CC-YMC-033,Holy Family (YMCA),Social Services,Child Care (YMCA),Child Care Centre,61 Allan Dr,,Caledon,ON,L7E 1P7,647-401-5057,https://peelchildcare.cioc.ca/record/CDR0607,School-Based Centre,Yes,5,216847
-8875468.2867,5432175.4013,205,CC-FDC-023,Holy Spirit (Family Day Care),Social Services,Child Care (Family Day),Child Care Centre,25 Bloomsbury Ave,,Brampton,ON,L6P 1W9,416-922-3434,https://peelchildcare.cioc.ca/record/CDR0844,School-Based Centre,Yes,10,280340
-8883143.6934,5417341.3474,206,CC-PLP-121,Homestead (PLASP),Social Services,Child Care (PLASP),Child Care Centre,99 Fletchers Creek Blvd,,Brampton,ON,L6X 4T7,905-890-1711,https://peelchildcare.cioc.ca/record/CDR0775,School-Based Centre,Yes,5,241372
-8875345.8435,5422404.6872,207,CC-YMC-071,Howden (YMCA),Social Services,Child Care (YMCA),Child Care Centre,150 Howden Blvd,,Brampton,ON,L6S 2G1,905-458-7873,https://peelchildcare.cioc.ca/record/CDR0383,Community-Based Non-Profit Centre,No,7,
-8876349.7331,5448228.9861,208,CC-YMC-024,Humberview (YMCA),Social Services,Child Care (YMCA),Child Care Centre,135 Kingsview Dr,,Caledon,ON,L7E 3V8,416-450-4606,https://peelchildcare.cioc.ca/record/CDR0601,School-Based Centre,No,5,201498
-8867380.8855,5403223.8246,209,CC-PLP-076b,Huntington Ridge (PLASP),Social Services,Child Care (PLASP),Child Care Centre,345 Huntington Ridge Dr,,Mississauga,ON,L5R 1R6,905-890-1711,https://peelchildcare.cioc.ca/record/CDR0709,School-Based Centre,Yes,4,90161
-8867378.2064,5403276.8787,210,CC-PLP-076a,Huntington Ridge Early Learning Centre (PLASP),Social Services,Child Care (PLASP),Child Care Centre,345 Huntington Ridge Dr,,Mississauga,ON,L5R 1R6,905-890-1711,https://peelchildcare.cioc.ca/record/CDR0557,School-Based Centre,No,4,
-8864712.5956,5397457.9767,211,CC-OTH-251,Huron Park Montessori,Social Services,Child Care (Other),Child Care Centre,830 Paisley Blvd W,,Mississauga,ON,L5C 3P5,647-400-1436,https://peelchildcare.cioc.ca/record/CDR0460,Community-Based For-Profit Centre,No,7,84168
-8883683.7431,5412924.7625,212,CC-YMC-034,Ingleborough (YMCA),Social Services,Child Care (YMCA),Child Care Centre,60 Ingleborough Dr,,Brampton,ON,L6S 0X5,905-943-9622 ext 750,https://peelchildcare.cioc.ca/record/CDR1057,School-Based Centre,Yes,5,296039
-8876733.1303,5447918.6793,213,CC-PLP-171,James Bolton (PLASP),Social Services,Child Care (PLASP),Child Care Centre,225 Kingsview Dr,,Caledon,ON,L7E 3X8,905-890-1711,https://peelchildcare.cioc.ca/record/CDR0603,School-Based Centre,Yes,5,18056
-8884699.8537,5414949.2351,214,CC-PLP-211,James Potter (PLASP),Social Services,Child Care (PLASP),Child Care Centre,9775 Creditview Rd,,Brampton,ON,L6X 0H7,905-890-1711,https://peelchildcare.cioc.ca/record/CDR0787,School-Based Centre,Yes,5,306225
-8858683.3341,5399468.2181,215,CC-PLP-183,Janet McDougald (PLASP),Social Services,Child Care (PLASP),Child Care Centre,498 Hartsdale Ave,,Mississauga,ON,L5G 2G6,905-890-1711,https://peelchildcare.cioc.ca/record/CDR1050,School-Based Centre,Yes,1,139170
-8875538.019,5425028.6193,216,CC-PLP-160,Jefferson (PLASP),Social Services,Child Care (PLASP),Child Care Centre,48 Jefferson Rd,,Brampton,ON,L6S 2N9,905-890-1711,https://peelchildcare.cioc.ca/record/CDR0756,School-Based Centre,Yes,8,287916
-8866336.0746,5397802.1303,217,CC-OTH-039,Jingbao Bilingual Children's Centre,Social Services,Child Care (Other),Child Care Centre,3195 Erindale Station Rd,,Mississauga,ON,L5C 1Y5,905-848-5332,https://peelchildcare.cioc.ca/record/CDR1140,Community-Based For-Profit Centre,No,6,28643
-8874021.6442,5397586.7521,218,CC-PLP-229,John Fraser Early Learning Centre (PLASP),Social Services,Child Care (PLASP),Child Care Centre,2665 Erin Centre Blvd,,Mississauga,ON,L5M 5H6,905-819-1890,https://peelchildcare.cioc.ca/record/CDR0558,School-Based Centre,No,9,
-8862671.2137,5392149.2042,219,CC-OTH-015,Junior Scholars Preschool,Social Services,Child Care (Other),Child Care Centre,1400 Lakeshore Rd W,"1,2,3",Mississauga,ON,L5L 2K8,905-823-7575,https://peelchildcare.cioc.ca/record/CDR0573,Community-Based For-Profit Centre,No,2,39624
-8878858.7831,5419594.2572,220,CC-OTH-168,KRT Kiddies Kollege,Social Services,Child Care (Other),Child Care Centre,141 Kennedy Rd N,,Brampton,ON,L6V 1X9,905-459-2300,https://peelchildcare.cioc.ca/record/CDR0411,Community-Based Non-Profit Centre,No,1,86080
-8869943.9996,5393183.4531,221,CC-OTH-019,Kaban Montessori Preschool,Social Services,Child Care (Other),Child Care Centre,2449 Dunwin Dr,,Mississauga,ON,L5L 1T1,905-569-3112,https://peelchildcare.cioc.ca/record/CDR0973,Community-Based For-Profit Centre,Yes,8,324361
-8869941.9499,5393108.438,222,CC-OTH-254,Kaban Montessori School,Social Services,Child Care (Other),Child Care Centre,2465 Dunwin Dr ,"1A,1B",Mississauga,ON,L5L 1T4,905-569-3112,https://peelchildcare.cioc.ca/record/CDR0973,Community-Based For-Profit Centre,No,8,400186
-8873719.4175,5400999.6657,223,CC-OTH-255,Kendellhurst Academy Inc.,Social Services,Child Care (Other),Child Care Centre,175 Queen St S,,Mississauga,ON,L5M 1L2,905-567-1070,https://peelchildcare.cioc.ca/record/CDR0545,Community-Based For-Profit Centre,No,11,248372
-8880671.9908,5421437.3302,224,CC-YMC-067,Kennedy Road North (YMCA),Social Services,Child Care (YMCA),Child Care Centre,9996 Kennedy Rd,,Brampton,ON,L6T 3S1,905-457-6006,https://peelchildcare.cioc.ca/record/CDR0439,Community-Based Non-Profit Centre,No,1,232317
-8860810.1303,5397166.6555,225,CC-YMC-035,Kenollie (YMCA),Social Services,Child Care (YMCA),Child Care Centre,1376 Glenwood Dr,,Mississauga,ON,L5G 2X1,416-509-5200,https://peelchildcare.cioc.ca/record/CDR0834,School-Based Centre,Yes,1,288025
-8884756.8466,5423094.4162,226,CC-OTH-339,Khalsa Day Care,Social Services,Child Care (Other),Child Care Centre,23 Conservation Dr,"9,10",Brampton,ON,L6Z 4R3,905-625-5355,https://peelchildcare.cioc.ca/record/CDR1616,Community-Based For-Profit Centre,No,2,331009
-8888186.8056,5415775.5052,227,CC-OTH-344,Kids & Company - Brampton,Social Services,Child Care (Other),Child Care Centre,75 Dufay Rd,C,Brampton,ON,L7A 4J1,905-843-2261,https://peelchildcare.cioc.ca/record/CDR1653,Community-Based For-Profit Centre,No,6,151408
-8865327.2384,5403293.1554,228,CC-OTH-256,Kids & Company - Robert Speck Parkway,Social Services,Child Care (Other),Child Care Centre,1 Robert Speck Pky,110,Mississauga,ON,L4Z 3M3,905-848-5437,https://peelchildcare.cioc.ca/record/CDR0515,Community-Based For-Profit Centre,No,4,7683
-8871499.7222,5408919.4763,229,CC-OTH-325,Kids & Company Mississauga,Social Services,Child Care (Other),Child Care Centre,85 Prologis Blvd,,Mississauga,ON,L5W 0G4,905-564-9888,https://peelchildcare.cioc.ca/record/CDR1466,Community-Based For-Profit Centre,No,5,405479
-8864016.5429,5402221.7611,230,CC-OTH-078,Kids Palace Nursery School,Social Services,Child Care (Other),Child Care Centre,20 Mississauga Valley Blvd,,Mississauga,ON,L5A 3S1,905-275-3657,https://peelchildcare.cioc.ca/record/CDR0449,Community-Based For-Profit Centre,No,4,32436
-8867519.4961,5391727.9156,231,CC-OTH-012,Kids Zone,Social Services,Child Care (Other),Child Care Centre,2275 Speakman Dr,"4,5",Mississauga,ON,L5K 1B1,905-403-9351,https://peelchildcare.cioc.ca/record/CDR0493,Community-Based For-Profit Centre,No,2,126091
-8877245.6005,5403400.9003,232,CC-OTH-353,Kidtopia Child Care Centre,Social Services,Child Care (Other),Child Care Centre,2233 Argentia Rd,,Mississauga,ON,L5N 2X7,905-858-8181,https://peel.cioc.ca/record/CDR1731,Community-Based For-Profit Centre,No,9,8144
-8864298.2403,5407710.694,233,CC-OTH-351,Kidz Kove Childcare Centre,Social Services,Child Care (Other),Child Care Centre,4870 Tomken Rd,7,Mississauga,ON,L4W 1J8,905-602-6656,https://peelchildcare.cioc.ca/record/CDR1721,Community-Based For-Profit Centre,No,3,257847
-8878746.2921,5403426.5751,234,CC-OTH-093,Kinder Kampus 3,Social Services,Child Care (Other),Child Care Centre,6981 Millcreek Dr ,12,Mississauga,ON,L5N 6B8,905-567-4780,https://peelchildcare.cioc.ca/record/CDR0561,Community-Based For-Profit Centre,No,9,260256
-8865301.5858,5392790.3113,235,CC-OTH-289,Kinder Kids International Preschool,Social Services,Child Care (Other),Child Care Centre,1575 Clarkson Rd N,1,Mississauga,ON,L5J 2X1,905-855-1111,https://peelchildcare.cioc.ca/record/CDR1355,Community-Based For-Profit Centre,No,2,
-8882088.8323,5401153.6357,236,CC-PLP-059,Kindree (PLASP),Social Services,Child Care (PLASP),Child Care Centre,7370 Terragar Blvd,,Mississauga,ON,L5N 7L8,905-890-1711,https://peelchildcare.cioc.ca/record/CDR0730,School-Based Centre,Yes,10,248989
-8868446.9619,5433950.5993,237,CC-OTH-294,King Academy Child Care Centre Inc.,Social Services,Child Care (Other),Child Care Centre,225 Castle Oaks Cross,11-13,Brampton,ON,L6P 3X3,905-913-0754,https://peelchildcare.cioc.ca/record/CDR1371,Community-Based For-Profit Centre,No,10,390102
-8879488.7446,5419464.583,238,CC-PLP-126,Kingswood Drive (PLASP),Social Services,Child Care (PLASP),Child Care Centre,235 Kingsview Dr,,Brampton,ON,L6V 3B3,905-890-1711,https://peelchildcare.cioc.ca/record/CDR0758,School-Based Centre,Yes,1,60756
-8865072.1821,5390875.4653,239,CC-OTH-304,La Villa Montessori School Inc.,Social Services,Child Care (Other),Child Care Centre,1261 Southdown Rd,,Mississauga,ON,L5J 2Y9,905-822-2223,https://peelchildcare.cioc.ca/record/CDR1393,Community-Based For-Profit Centre,No,2,146597
-8856330.8376,5400407.2564,240,CC-OTH-276,Lakeside Montessori,Social Services,Child Care (Other),Child Care Centre,1079 Lakeshore Rd E,,Mississauga,ON,L5E 1E8,905-891-8332,https://peelchildcare.cioc.ca/record/CDR1143,Community-Based For-Profit Centre,No,1,
-8866321.1518,5421886.1702,241,CC-PLP-231,Lancaster (PLASP),Social Services,Child Care (PLASP),Child Care Centre,7425 Netherwood Rd,,Mississauga,ON,L4T 2N7,905-791-2017,https://peelchildcare.cioc.ca/record/CDR0593,School-Based Centre,Yes,5,
-8877664.1732,5427507.617,242,CC-YMC-020,Larkspur (YMCA),Social Services,Child Care (YMCA),Child Care Centre,111 Larkspur Rd,,Brampton,ON,L6S 1X2,416-716-1352,https://peelchildcare.cioc.ca/record/CDR0845,School-Based Centre,Yes,9,336449
-8867706.498,5429067.8179,243,CC-OTH-359,Laugh & Learn Children Services Inc.,Social Services,Child Care (Other),Child Care Centre,15 Beaumaris Dr,,Brampton,ON,L6T5J6,905-789-8900,https://peel.cioc.ca/record/CDR1780?Number=0,Community-Based For-Profit Centre,No,8,484379
-8863159.3327,5400544.2392,244,CC-OTH-061,Learning Jungle School,Social Services,Child Care (Other),Child Care Centre,78 Agnes St,,Mississauga,ON,L5B 1J7,905-273-7023,https://peelchildcare.cioc.ca/record/CDR0513,Community-Based For-Profit Centre,No,7,219449
-8875372.1414,5422673.5927,245,CC-PLP-141,Lester B. Pearson (PLASP),Social Services,Child Care (PLASP),Child Care Centre,140 Howden Blvd,,Brampton,ON,L6S 2G1,905-890-1711,https://peelchildcare.cioc.ca/record/CDR0754,School-Based Centre,Yes,7,300914
-8877454.7229,5407251.7699,246,CC-YMC-036,Levi Creek (YMCA),Social Services,Child Care (YMCA),Child Care Centre,1525 Samuelson Cir,,Mississauga,ON,L5N 7Z1,905-564-9879 ext 7,https://peelchildcare.cioc.ca/record/CDR0862,School-Based Centre,Yes,11,300029
-8870368.6408,5400703.5149,247,CC-OTH-058,Little Angels Christian Child Care - 1,Social Services,Child Care (Other),Child Care Centre,1245 Eglinton Ave W,,Mississauga,ON,L5V 2M4,905-814-7774 ext 278,https://peelchildcare.cioc.ca/record/CDR0538,Community-Based Non-Profit Centre,No,6,
-8875462.3848,5403018.4327,248,CC-OTH-258,Little Angels Christian Child Care - 2,Social Services,Child Care (Other),Child Care Centre,6341 Mississauga Rd,,Mississauga,ON,L5N 1A5,905-567-6800,https://peelchildcare.cioc.ca/record/CDR0863,Community-Based Non-Profit Centre,No,11,
-8879200.7121,5416435.094,249,CC-OTH-333,Little Bloomers Childcare Centre,Social Services,Child Care (Other),Child Care Centre,153 Queen St W,,Brampton,ON,L6Y 1M4,905-499-0789,https://peelchildcare.cioc.ca/record/CDR1602,Community-Based For-Profit Centre,No,3,48892
-8869951.4505,5392321.2876,250,CC-OTH-008,Little Bright Stars,Social Services,Child Care (Other),Child Care Centre,2575 Dundas St W,18,Mississauga,ON,L5K 2M6,905-569-2267,https://peelchildcare.cioc.ca/record/CDR0465,Community-Based For-Profit Centre,No,8,
-8879651.0819,5409052.9334,251,CC-OTH-129,Little Folks Montessori Inc.,Social Services,Child Care (Other),Child Care Centre,1555 Steeles Ave W,,Brampton,ON,L6Y 5J9,905-455-1264,https://peelchildcare.cioc.ca/record/CDR0431,Community-Based For-Profit Centre,No,6,264886
-8859525.8635,5407272.2395,252,CC-OTH-128,Little Folks Montessori Pre-School Inc.,Social Services,Child Care (Other),Child Care Centre,3315 Fieldgate Dr,,Mississauga,ON,L4X 2J3,905-624-6414,https://peelchildcare.cioc.ca/record/CDR0485,Community-Based For-Profit Centre,No,3,97426
-8873838.0631,5401042.6579,253,CC-OTH-063,Little Rascals Preschool,Social Services,Child Care (Other),Child Care Centre,158A Queen St S,,Mississauga,ON,L5M 1K8,905-858-0177,https://peelchildcare.cioc.ca/record/CDR0505,Community-Based For-Profit Centre,No,11,264872
-8886863.9409,5423148.8013,254,CC-OTH-260,Little Stars Daycare,Social Services,Child Care (Other),Child Care Centre,527 Van Kirk Dr ,105,Brampton,ON,L7A 0P4,905-970-0638,https://peelchildcare.cioc.ca/record/CDR0968,Community-Based For-Profit Centre,No,2,158444
-8863254.3614,5400407.7327,255,CC-OTH-057,Little Superstars Montessori & DayCare,Social Services,Child Care (Other),Child Care Centre,3022 Novar Rd,,Mississauga,ON,L5B 1S4,905-232-0059,https://peelchildcare.cioc.ca/record/CDR0488,Community-Based For-Profit Centre,No,7,247531
-8884504.6509,5413518.589,256,CC-PLP-222,Lorenville (PLASP),Social Services,Child Care (PLASP),Child Care Centre,10 Lorenville Dr,,Brampton,ON,L5G 1B8,1-866-317-6251,https://peelchildcare.cioc.ca/record/CDR1274,School-Based Centre,Yes,5,317819
-8864096.548,5394091.3214,257,CC-PLP-013,Lorne Park (PLASP),Social Services,Child Care (PLASP),Child Care Centre,1325 Indian Rd,,Mississauga,ON,L5H 1S3,905-890-1711,https://peelchildcare.cioc.ca/record/CDR0662,School-Based Centre,Yes,2,125871
-8879982.932,5408902.3184,258,CC-OTH-302,Lullaboo Nursery and Child Care - Churchill,Social Services,Child Care (Other),Child Care Centre,8015 Financial Dr,,Brampton,ON,L6Y 0J8,289-410-0111,https://peelchildcare.cioc.ca/record/CDR1389,Community-Based For-Profit Centre,No,4,396099
-8870843.2066,5404577.8564,259,CC-OTH-334,Lullaboo Nursery and Child Care - Heartland,Social Services,Child Care (Other),Child Care Centre,5510 Mavis Rd,,Mississauga,ON,L5V 2X5,289-444-5055,https://peelchildcare.cioc.ca/record/CDR1601,Community-Based For-Profit Centre,No,6,265803
-8877033.448,5395070.6182,260,CC-OTH-261,Lullaboo Nursery and Child Care - Mississauga,Social Services,Child Care (Other),Child Care Centre,5329 Ninth Line,,Mississauga,ON,L5M 5X5,905-936-7162,https://peelchildcare.cioc.ca/record/CDR0886,Community-Based For-Profit Centre,No,10,
-8882368.1981,5412636.9243,261,CC-OTH-320,Lullaboo Nursery and Child Care - Queen,Social Services,Child Care (Other),Child Care Centre,1450 Queen St W,,Brampton,ON,L6X 0B2,289-298-5370,https://peelchildcare.cioc.ca/record/CDR1433,Community-Based For-Profit Centre,No,5,400491
-8872857.2403,5400043.0783,262,CC-OTH-327,Ma Petite Maison Childcare,Social Services,Child Care (French),Child Care Centre,354 Queen St S,,Mississauga,ON,L5M 1M2,416-389-0681,https://peelchildcare.cioc.ca/record/CDR1470,Community-Based For-Profit Centre,No,11,93448
-8890248.0305,5419204.4841,263,CC-PLP-250,Malala Yousafzai P.S. (PLASP),Social Services,Child Care (PLASP),Child Care Centre,1248 Mayfield Rd,,Caledon,ON,L7C 0Y7,905-890-1711,https://peelchildcare.cioc.ca/record/CDR1714,School-Based Centre,No,2,206835
-8879019.8096,5402768.2204,264,CC-PLP-072,Maplewood (PLASP),Social Services,Child Care (PLASP),Child Care Centre,2650 Gananoque Dr,,Mississauga,ON,L5N 2R2,905-890-1711,https://peelchildcare.cioc.ca/record/CDR0706,School-Based Centre,Yes,9,233692
-8866903.793,5421504.3283,265,CC-PLP-185,Marvin Heights (PLASP),Social Services,Child Care (PLASP),Child Care Centre,7455 Redstone Rd,,Mississauga,ON,L4T 2B3,905-890-1711,https://peelchildcare.cioc.ca/record/CDR1052,School-Based Centre,Yes,5,23422
-8863748.5277,5398723.0542,266,CC-YMC-062,Mary Fix (YMCA),Social Services,Child Care (YMCA),Child Care Centre,486 Paisley Blvd W,,Mississauga,ON,L6V 2E7,1-647-298-7345,https://peelchildcare.cioc.ca/record/CDR1291,School-Based Centre,Yes,7,224073
-8877364.563,5424962.7299,267,CC-PLP-159,Massey Street (PLASP),Social Services,Child Care (PLASP),Child Care Centre,95 Massey St,,Brampton,ON,L6S 3A3,905-890-1711,https://peelchildcare.cioc.ca/record/CDR0759,School-Based Centre,Yes,7,174342
-8866212.8493,5398162.0337,268,CC-PLP-034,McBride (PLASP),Social Services,Child Care (PLASP),Child Care Centre,974 McBride Ave,,Mississauga,ON,L5C 1L6,905-890-1711,https://peelchildcare.cioc.ca/record/CDR0651,School-Based Centre,Yes,6,277595
-8882531.4403,5414746.044,269,CC-PLP-240,McClure (PLASP),Social Services,Child Care (PLASP),Child Care Centre,50 Parity Rd,,Brampton,ON,L6X 5M8,1-888-739-4102,https://peelchildcare.cioc.ca/record/CDR1441,School-Based Centre,Yes,5,423160
-8878752.254,5416010.184,270,CC-YMC-038,McHugh (YMCA),Social Services,Child Care (YMCA),Child Care Centre,31 Craig St,,Brampton,ON,L6Y 1J2,416-928-9622,https://peelchildcare.cioc.ca/record/CDR0736,School-Based Centre,Yes,3,390972
-8875928.2978,5396192.5406,271,CC-PLP-186,McKinnon (PLASP),Social Services,Child Care (PLASP),Child Care Centre,3270 Tacc Dr,,Mississauga,ON,L5M 0H3,905-890-1711,https://peelchildcare.cioc.ca/record/CDR0721,School-Based Centre,Yes,10,291067
-8863643.9213,5397740.1841,272,CC-OTH-290,Meadow Green Preschool,Social Services,Child Care (Other),Child Care Centre,649 Queensway W,,Mississauga,ON,L6R 3G2,905-273-3344,https://peelchildcare.cioc.ca/record/CDR0163,Community-Based For-Profit Centre,No,7,117059
-8879039.559,5400389.4291,273,CC-YMC-057,Meadowvale (YMCA),Social Services,Child Care (YMCA),Child Care Centre,6700 Edenwood Dr,,Mississauga,ON,L5N 3B2,1-416-928-9622,https://peel.cioc.ca/record/CDR1768,School-Based Centre,No,,11607
-8874886.7051,5407970.8566,274,CC-YMC-039,Meadowvale Village (YMCA),Social Services,Child Care (YMCA),Child Care Centre,890 Old Derry Rd W,,Mississauga,ON,L5W 1A1,416-569-7363,https://peelchildcare.cioc.ca/record/CDR0860,School-Based Centre,Yes,11,210662
-8879039.559,5400389.4291,275,CC-YMC-083,Meadowvale YMCA Child Care Centre,Social Services,Child Care (YMCA),Child Care Centre,6700 Edenwood Dr,,Mississauga,ON,L5N3B2,416-928-9622,https://peel.cioc.ca/record/CDR1768?Number=0 ,School-Based Centre,No,9,16266
-8862520.0868,5402629.4374,276,CC-PLP-073,Metropolitan Andrei (PLASP),Social Services,Child Care (PLASP),Child Care Centre,515 Mississauga Valley Blvd,,Mississauga,ON,L5A 3G6,905-890-1711,https://peelchildcare.cioc.ca/record/CDR0690,School-Based Centre,Yes,4,267585
-8874635.7173,5398428.1852,277,CC-YMC-008,Middlebury (YMCA),Social Services,Child Care (YMCA),Child Care Centre,5482 Middlebury Dr,,Mississauga,ON,L5M 5E8,905-821-2169,https://peelchildcare.cioc.ca/record/CDR0506,School-Based Centre,Yes,9,289147
-8878623.2645,5401112.6571,278,CC-OTH-356,Mighty Wonders Preschool and Childcare,Social Services,Child Care (Other),Child Care Centre,6945 Meadowvale Town Centre Circle,,Mississauga,ON,L5N 2W7,905-858-5800,https://peelchildcare.cioc.ca/record/CDR1746?Number=7,Community-Based For-Profit Centre,No,9,262903
-8877332.9316,5402995.2083,279,CC-OTH-084,Millcreek Kinder Kampus,Social Services,Child Care (Other),Child Care Centre,6685 Millcreek Dr ,10,Mississauga,ON,L5N 5M5,905-567-1111,https://peelchildcare.cioc.ca/record/CDR0521,Community-Based For-Profit Centre,No,9,400185
-8878371.2743,5399485.2973,280,CC-PLP-042,Miller's Grove (PLASP),Social Services,Child Care (PLASP),Child Care Centre,6325 Miller's Grove,,Mississauga,ON,L5N 3C8,905-890-1711,https://peelchildcare.cioc.ca/record/CDR0724,School-Based Centre,Yes,9,13229
-8859392.1915,5398163.8623,281,CC-PLP-035,Mineola (PLASP),Social Services,Child Care (PLASP),Child Care Centre,145 Windy Oaks,,Mississauga,ON,L5G 1Z4,905-890-1711,https://peelchildcare.cioc.ca/record/CDR0839,School-Based Centre,Yes,1,396717
-8866592.2096,5389948.0636,282,CC-OTH-005,Mini Skool - A Child's Place Inc.,Social Services,Child Care (Other),Child Care Centre,2501 Truscott Dr,,Mississauga,ON,L5J 2B3,905-823-3000,https://peelchildcare.cioc.ca/record/CDR0666,Community-Based Non-Profit Centre,No,2,32393
-8874026.3311,5422243.1458,283,CC-OTH-188,Mini Skool - Bramalea,Social Services,Child Care (Other),Child Care Centre,27 King's Cross Rd,,Brampton,ON,L6T 3V5,905-792-2230,https://peelchildcare.cioc.ca/record/CDR0384,Community-Based Non-Profit Centre,No,7,172383
-8878157.4135,5418708.455,284,CC-OTH-164,Mini Skool - Brampton,Social Services,Child Care (Other),Child Care Centre,178 Church St E,,Brampton,ON,L6V 1H1,905-457-1248,https://peelchildcare.cioc.ca/record/CDR0438,Community-Based Non-Profit Centre,No,1,56778
-8866049.8797,5389223.1756,285,CC-OTH-003,Mini Skool - Bromsgrove,Social Services,Child Care (Other),Child Care Centre,2488 Bromsgrove Rd,,Mississauga,ON,L5J 1L8,905-823-3000,https://peelchildcare.cioc.ca/record/CDR0567,Community-Based Non-Profit Centre,No,2,39387
-8861455.9758,5403454.2357,286,CC-OTH-101,Mini Skool - Cawthra,Social Services,Child Care (Other),Child Care Centre,3153 Cawthra Rd,,Mississauga,ON,L5A 2X4,905-276-3933,https://peelchildcare.cioc.ca/record/CDR0482,Community-Based Non-Profit Centre,No,3,30101
-8871442.9692,5422032.6246,287,CC-OTH-182,Mini Skool - Clubhouse (106A),Social Services,Child Care (Other),Child Care Centre,723 Balmoral Dr,,Brampton,ON,L6T 1X5,905-793-2230,https://peelchildcare.cioc.ca/record/CDR1454,Community-Based Non-Profit Centre,No,7,176118
-8873127.9732,5421276.8099,288,CC-OTH-182,Mini Skool - Clubhouse (106B),Social Services,Child Care (Other),Child Care Centre,420 Balmoral Dr,,Brampton,ON,L6T 1V9,905-792-2230,https://peelchildcare.cioc.ca/record/CDR0893,Community-Based Non-Profit Centre,No,7,191306
-8880969.6991,5402918.768,289,CC-OTH-082,Mississauga Children Montessori - Crosscurrent Campus,Social Services,Child Care (Other),Child Care Centre,2980 Crosscurrent Dr,"1,2",Mississauga,ON,L5C 7C7,905-785-0144,https://peelchildcare.cioc.ca/record/CDR0560,Community-Based For-Profit Centre,No,9,
-8870301.5492,5400745.9273,290,CC-OTH-317,Mississauga Christian French School,Social Services,Child Care (Other),Child Care Centre,1245 Eglinton Ave W,,Mississauga,ON,L5V 2M4,905-567-4032 ext 243,https://peelchildcare.cioc.ca/record/CDR0926,Community-Based Non-Profit Centre,No,6,140431
-8866006.6819,5401987.2592,291,CC-OTH-074,Mississauga Civic Centre Workplace Day Care,Social Services,Child Care (Other),Child Care Centre,300 City Centre Dr,,Mississauga,ON,L5B 3C1,905-896-5633,https://peelchildcare.cioc.ca/record/CDR0451,Community-Based Non-Profit Centre,No,4,
-8865375.8124,5408495.2251,292,CC-OTH-360,Mississauga East ATCD,Social Services,Child Care (Other),Child Care Centre,977 Panterra Dr,,Mississauga,ON,L4W2T4,905-624-0033,https://peel.cioc.ca/record/CDR1784?Number=0,Community-Based For-Profit Centre,No,5,22637
-8872855.6743,5392133.7685,293,CC-YMC-066,Mississauga Ridgeway (YMCA),Social Services,Child Care (YMCA),Child Care Centre,3595 Ridgeway Dr,,Mississauga,ON,L5L 5T4,905-607-0518,https://peelchildcare.cioc.ca/record/CDR0470,Community-Based Non-Profit Centre,No,8,281962
-8863669.4115,5403350.3212,294,CC-YMC-073,Mississauga Valley (YMCA),Social Services,Child Care (YMCA),Child Care Centre,1275 Mississauga Valley Blvd,,Mississauga,ON,L5A 3R8,905-276-5038,https://peelchildcare.cioc.ca/record/CDR0481,Community-Based Non-Profit Centre,No,4,
-8865962.6102,5401728.697,295,CC-YMC-012,Mississauga YMCA,Social Services,Child Care (YMCA),Child Care Centre,325 Burnhamthorpe Rd W,,Mississauga,ON,L5B 3R2,905-897-6801 ext 440,https://peelchildcare.cioc.ca/record/CDR0452,Community-Based Non-Profit Centre,No,4,2489
-8882353.5749,5417996.9735,296,CC-OTH-287,Montessori Leaders Casa,Social Services,Child Care (Other),Child Care Centre,20 Red Maple Dr,1,Brampton,ON,L6X 4N7,905-455-7758,https://peelchildcare.cioc.ca/record/CDR0986,Community-Based For-Profit Centre,No,5,53666
-8864405.0782,5394706.4865,297,CC-OTH-340,Montessori in the Woods Inc.,Social Services,Child Care (Other),Child Care Centre,1261 North Sheridan Way,,Mississauga,ON,L5H 2A3,416-887-9096,https://peelchildcare.cioc.ca/record/CDR1618,Community-Based For-Profit Centre,No,8,230689
-8873855.9518,5395398.4729,298,CC-OTH-263,MontessoriWorks - The School for Me,Social Services,Child Care (Other),Child Care Centre,3050 Artesian Dr ,"1,2,3",Mississauga,ON,L5M 7P5,905-569-1000,https://peelchildcare.cioc.ca/record/CDR0550,Community-Based For-Profit Centre,No,8,278397
-8865457.4481,5422688.8865,299,CC-YMC-065,Morningstar (YMCA),Social Services,Child Care (YMCA),Child Care Centre,3500 Morning Star Dr,,Mississauga,ON,L4T 1Y2,905-677-8929,https://peelchildcare.cioc.ca/record/CDR0590,Community-Based Non-Profit Centre,No,5,63864
-8877845.2082,5412404.7843,300,CC-PLP-108,Morton Way (PLASP),Social Services,Child Care (PLASP),Child Care Centre,200 Morton Way,,Brampton,ON,L6Y 2P8,905-890-1711,https://peelchildcare.cioc.ca/record/CDR0760,School-Based Centre,Yes,4,252624
-8885690.131,5414914.9209,301,CC-OTH-330,Mount Pleasant Montessori,Social Services,Child Care (Other),Child Care Centre,15 Ashby Field,1-4,Brampton,ON,L6X 3B7,905-452-8884,https://peelchildcare.cioc.ca/record/CDR1322,Community-Based For-Profit Centre,No,5,400187
-8885968.7428,5415593.6738,302,CC-PLP-187,Mount Pleasant Village (PLASP),Social Services,Child Care (PLASP),Child Care Centre,100 Commuter Dr,,Brampton,ON,L7A 0P7,905-890-1711,https://peelchildcare.cioc.ca/record/CDR1013,School-Based Centre,Yes,6,337866
-8877565.6019,5433033.8027,303,CC-PLP-188,Mount Royal (PLASP),Social Services,Child Care (PLASP),Child Care Centre,65 Mount Royal Cir,,Brampton,ON,L6P 2K4,905-890-1711,https://peelchildcare.cioc.ca/record/CDR0793,School-Based Centre,No,10,291700
-8877112.5899,5430230.7359,304,CC-FDC-030,Mountain Ash (Family Day Care),Social Services,Child Care (Family Day),Child Care Centre,280 Mountainash Rd,,Brampton,ON,L6R 3G2,905-793-7595,https://peelchildcare.cioc.ca/record/CDR0794,School-Based Centre,Yes,10,236805
-8860193.424,5401177.4666,305,CC-PLP-230,Munden Park (PLASP),Social Services,Child Care (PLASP),Child Care Centre,515 Tedwyn Dr,,Mississauga,ON,L5A 1J8,905-279-9251,https://peelchildcare.cioc.ca/record/CDR1368?Number=285,School-Based Centre,Yes,7,112902
-8888718.6912,5418742.1961,306,CC-OTH-345,My First Montessori School Inc.,Social Services,Child Care (Other),Child Care Centre,11210 Creditview Rd,C,Brampton,ON,L7A 4X3,416-834-6540,https://peelchildcare.cioc.ca/record/CDR1619,Community-Based For-Profit Centre,No,6,444807
-8866696.8694,5406022.816,307,CC-FDC-004,Nahani Way (Family Day Care),Social Services,Child Care (Family Day),Child Care Centre,235 Nahani Way,,Mississauga,ON,L4Z 3J6,416-922-3434,https://peelchildcare.cioc.ca/record/CDR0507,School-Based Centre,Yes,5,
-8884790.8289,5417797.4201,308,CC-FDC-031,Nelson Mandela (Family Day Care),Social Services,Child Care (Family Day),Child Care Centre,10125 Chinguacousy Rd,,Brampton,ON,L7A 3Z6,416-922-3434,https://peelchildcare.cioc.ca/record/CDR1362,School-Based Centre,Yes,6,400220
-8864566.0332,5402200.949,309,CC-OTH-081,New Playland Nursery,Social Services,Child Care (Other),Child Care Centre,28 Elm Dr W,,Mississauga,ON,L5B 1L9,905-276-8802,https://peelchildcare.cioc.ca/record/CDR0454,Community-Based For-Profit Centre,No,7,289794
-8879383.7104,5412685.9511,310,CC-OTH-143,New Steps 2 - Brampton (St. Augustine),Social Services,Child Care (Other),Child Care Centre,27 Drinkwater Rd,,Brampton,ON,L6Y 4T6,905-451-4140,https://peelchildcare.cioc.ca/record/CDR0412,School-Based Centre,No,4,298901
-8862877.0811,5397917.9628,311,CC-OTH-041,Northridge Montessori School,Social Services,Child Care (Other),Child Care Centre,2185 Stavebank Rd,,Mississauga,ON,L5C 1T3,905-281-0840,https://peelchildcare.cioc.ca/record/CDR0044,Community-Based For-Profit Centre,No,7,396700
-8864527.5808,5407530.5555,312,CC-OTH-264,Northstar Montessori,Social Services,Child Care (Other),Child Care Centre,4900 Tomken Rd,,Mississauga,ON,L4W 1J8,905-890-7827,https://peelchildcare.cioc.ca/record/CDR0514,Community-Based For-Profit Centre,No,3,233771
-8880522.2869,5415266.2714,313,CC-PLP-116,Northwood (PLASP),Social Services,Child Care (PLASP),Child Care Centre,70 Gretna Dr,,Brampton,ON,L6X 2E9,905-890-1711,https://peelchildcare.cioc.ca/record/CDR0761,School-Based Centre,Yes,5,215113
-8867473.1378,5391471.9633,314,CC-OTH-011,Olive Grove Preschool and Childcare,Social Services,Child Care (Other),Child Care Centre,2300 Speakman Dr,,Mississauga,ON,L5K 1B4,905-855-8557,https://peelchildcare.cioc.ca/record/CDR0495,Community-Based Non-Profit Centre,No,2,
-8871261.7008,5421974.7455,315,CC-OTH-316,Open Book Daycare Centres Inc.,Social Services,Child Care (Other),Child Care Centre,725 Balmoral Dr,,Brampton,ON,L6T 1X6,647-242-6076,https://peelchildcare.cioc.ca/record/CDR1423,Community-Based For-Profit Centre,No,7,75392
-8875176.6793,5395309.2486,316,CC-PLP-189,Oscar Peterson (PLASP),Social Services,Child Care (PLASP),Child Care Centre,5120 Perennial Dr,,Mississauga,ON,L5M 7T9,905-890-1711,https://peelchildcare.cioc.ca/record/CDR0720,School-Based Centre,Yes,10,312501
-8879231.0392,5397987.2548,317,CC-PLP-030,Osprey Woods (PLASP),Social Services,Child Care (PLASP),Child Care Centre,6135 Lisgar Dr,,Mississauga,ON,L5N 7V2,905-890-1711,https://peelchildcare.cioc.ca/record/CDR0731,School-Based Centre,Yes,10,275452
-8880832.9276,5417328.6193,318,CC-PLP-122,Our Lady of Fatima (PLASP),Social Services,Child Care (PLASP),Child Care Centre,39 Sunset Blvd,,Brampton,ON,L6X 1X1,905-890-1711,https://peelchildcare.cioc.ca/record/CDR0765,School-Based Centre,No,1,162251
-8873426.7828,5402471.5332,319,CC-YMC-013,Our Lady of Good Voyage (YMCA),Social Services,Child Care (YMCA),Child Care Centre,5850 River Grove Ave,,Mississauga,ON,L5M 4W2,905-858-0052,https://peelchildcare.cioc.ca/record/CDR0508,School-Based Centre,Yes,6,10279
-8877448.6181,5433241.7077,320,CC-YMC-040,Our Lady of Lourdes (YMCA),Social Services,Child Care (YMCA),Child Care Centre,25 Mount Royal Cir,,Brampton,ON,L6P 1Y7,647-963-9716,https://peelchildcare.cioc.ca/record/CDR1027,School-Based Centre,Yes,10,289833
-8875879.2793,5399071.1805,321,CC-PLP-039,Our Lady of Mercy (PLASP),Social Services,Child Care (PLASP),Child Care Centre,5820 Glen Erin Dr,,Mississauga,ON,L5N 5J9,905-890-1711,https://peelchildcare.cioc.ca/record/CDR0700,School-Based Centre,Yes,9,275096
-8881655.5908,5415155.0195,322,CC-YMC-016,Our Lady of Peace (YMCA),Social Services,Child Care (YMCA),Child Care Centre,15 Fincham Ave,,Brampton,ON,L6X 3V2,905-455-6445,https://peelchildcare.cioc.ca/record/CDR0419,School-Based Centre,Yes,5,
-8878865.8996,5425922.1711,323,CC-FDC-022,Our Lady of Providence (Family Day Care),Social Services,Child Care (Family Day),Child Care Centre,35 Black Oak Dr,,Brampton,ON,L6R 1B9,416-922-3434,https://peelchildcare.cioc.ca/record/CDR0386,School-Based Centre,Yes,9,308240
-8862136.9183,5392349.8444,324,CC-PLP-190,Owenwood (PLASP),Social Services,Child Care (PLASP),Child Care Centre,930 Owenwood Dr,,Mississauga,ON,L5H 3J2,905-890-1711,https://peelchildcare.cioc.ca/record/CDR0663,School-Based Centre,Yes,2,43149
-8886892.7944,5457106.9153,325,CC-YMC-025,Palgrave (YMCA),Social Services,Child Care (YMCA),Child Care Centre,8962 Patterson Side Rd,,Caledon,ON,L0N 1P0,905-857-3531,https://peelchildcare.cioc.ca/record/CDR0602,School-Based Centre,Yes,4,323108
-8876462.2223,5415541.6436,326,CC-PLP-117,Parkway (PLASP),Social Services,Child Care (PLASP),Child Care Centre,24 Duncan Bull Dr,,Brampton,ON,L6W 1H4,905-890-1711,https://peelchildcare.cioc.ca/record/CDR0763,School-Based Centre,Yes,3,139628
-8881923.9751,5422550.2751,327,CC-OTH-190,Pathway Childcare Centre Inc.,Social Services,Child Care (Other),Child Care Centre,25 Ruth Ave,,Brampton,ON,L6Z 3X3,905-846-3939,https://peelchildcare.cioc.ca/record/CDR0420,Community-Based Non-Profit Centre,No,2,186405
-8875987.6786,5410921.022,328,CC-PLP-106b,Pauline Vanier (PLASP),Social Services,Child Care (PLASP),Child Care Centre,56 Oaklea Blvd,,Brampton,ON,L4Z 3E9,905-890-1711,https://peelchildcare.cioc.ca/record/CDR0436,School-Based Centre,Yes,4,275543
-8876016.5122,5410946.2013,329,CC-PLP-106a,Pauline Vanier Early Learning Centre (PLASP),Social Services,Child Care (PLASP),Child Care Centre,56 Oaklea Blvd,,Brampton,ON,L4Z 3E9,905-890-1711,https://peelchildcare.cioc.ca/record/CDR0929,School-Based Centre,No,4,
-8863343.4721,5391163.0215,330,CC-OTH-309,Peel Montessori School,Social Services,Child Care (Other),Child Care Centre,964 Meadow Wood Road,,Mississauga,ON,L5J 2S6,905-823-6522,https://peelchildcare.cioc.ca/record/CDR0093,Community-Based For-Profit Centre,No,2,152238
-8863945.9013,5407604.3069,331,CC-FDC-005,Philip Pocock (Family Day Care),Social Services,Child Care (Family Day),Child Care Centre,4555 Tomken Rd,,Mississauga,ON,L4W 1J9,416-922-3434,https://peelchildcare.cioc.ca/record/CDR0442,School-Based Centre,No,3,289375
-8875437.778,5402999.2829,332,CC-OTH-285,Philopateer Christian College,Social Services,Child Care (Other),Child Care Centre,6341 Mississauga Rd,,Mississauga,ON,L5N 1A5,905-814-5181,https://peelchildcare.cioc.ca/record/CDR1320,Community-Based Non-Profit Centre,No,11,11473
-8872834.861,5442928.5191,333,CC-OTH-346,Play Time Playground,Social Services,Child Care (Other),Child Care Centre,20 Simona Dr,3 & 4,Caledon,ON,L7E 4K1,905-951-2727,https://peelchildcare.cioc.ca/record/CDR1704?Number=411,Community-Based For-Profit Centre,No,5,427023
-8868977.7888,5393476.4887,334,CC-OTH-352,Playdays Childcare Centre,Social Services,Child Care (Other),Child Care Centre,2255 Dundas St W,101B,Mississauga,ON,L5K 1R6,416-888-8847,https://peelchildcare.cioc.ca/record/CDR1720,Community-Based For-Profit Centre,No,8,127045
-8877494.9466,5400956.6385,335,CC-PLP-058,Plowman's Park (PLASP),Social Services,Child Care (PLASP),Child Care Centre,5940 Montevideo Rd,,Mississauga,ON,L5N 3J5,905-890-1711,https://peelchildcare.cioc.ca/record/CDR0725,School-Based Centre,Yes,9,111690
-8880094.2202,5400815.2266,336,CC-PLP-055b,Plum Tree Park (PLASP),Social Services,Child Care (PLASP),Child Care Centre,6855 Tenth Line W,,Mississauga,ON,L5N 5R2,905-890-1711,https://peelchildcare.cioc.ca/record/CDR0726,School-Based Centre,Yes,9,316831
-8880102.4216,5400877.5847,337,CC-PLP-055a,Plum Tree Park Early Learning Centre (PLASP),Social Services,Child Care (PLASP),Child Care Centre,6855 Tenth Line W,,Mississauga,ON,L5N 5R2,905-890-1711,https://peelchildcare.cioc.ca/record/CDR0530,School-Based Centre,No,9,
-8864327.8501,5404707.1635,338,CC-OTH-109,Preschool Petit Bateau (Rene Lamoureux),Social Services,Child Care (French),Child Care Centre,385 Meadows Blvd,,Mississauga,ON,L5N 1R3,905-279-1414,https://peelchildcare.cioc.ca/record/CDR0533,School-Based Centre,Yes,4,
-8876231.4552,5420763.1513,339,CC-PLP-131,Preschool Petit Bateau - Brampton (Sainte Jeanne d'Arc),Social Services,Child Care (French),Child Care Centre,25 Laurelcrest St,,Brampton,ON,L6S 4C4,905-455-3338,https://peelchildcare.cioc.ca/record/CDR0326,School-Based Centre,Yes,7,
-8877665.1634,5405953.9301,340,CC-OTH-107,Preschool Petit Bateau - Mississauga (Ange Gabriel),Social Services,Child Care (French),Child Care Centre,1830 Meadowvale Blvd,,Mississauga,ON,L5N 7H5,905-285-0257,https://peelchildcare.cioc.ca/record/CDR0337,School-Based Centre,Yes,11,
-8885350.5304,5426970.4208,341,CC-OTH-318,Preschool Petit Bateau Brampton-Caledon (Saint-Jean-Bosco),Social Services,Child Care (French),Child Care Centre,55 Abbotside Way,,Caledon,ON,L7C 4C3,905-495-2665,https://peelchildcare.cioc.ca/record/CDR1430,School-Based Centre,Yes,2,
-8859747.4209,5395771.4386,342,CC-OTH-033,Prince Edward Montessori School,Social Services,Child Care (Other),Child Care Centre,12 Peter St S,,Mississauga,ON,L5H 0A1,905-891-6912,https://peelchildcare.cioc.ca/record/CDR0575,Community-Based For-Profit Centre,No,1,342754
-8875351.3104,5436625.0614,343,CC-PLP-249,Pte. Buckam Singh Public School,Social Services,Child Care (PLASP),Child Care Centre,100 Martin Byrne Dr,,Brampton,ON,L6P0H7,,https://peel.cioc.ca/record/CDR1767?Number=0,School-Based Centre,No,10,423403
-8886661.1862,5427694.3471,344,CC-OTH-319,Puddle Jumpers Preschool Inc.,Social Services,Child Care (Other),Child Care Centre,12570 Kennedy Rd,5,Caledon,ON,L7C 3N5,416-564-1843,https://peelchildcare.cioc.ca/record/CDR1431,Community-Based For-Profit Centre,No,2,406075
-8880235.2919,5414616.2222,345,CC-PLP-114,Queen Street (PLASP),Social Services,Child Care (PLASP),Child Care Centre,20 Academic Dr,,Brampton,ON,L6Y 2C7,905-890-1711,https://peelchildcare.cioc.ca/record/CDR0833,School-Based Centre,Yes,4,390697
-8857336.4765,5400401.8735,346,CC-YMC-041,Queen of Heaven (YMCA),Social Services,Child Care (YMCA),Child Care Centre,1198 Alexandra Ave,,Mississauga,ON,L5E 2A5,647-299-5014,https://peelchildcare.cioc.ca/record/CDR0833,School-Based Centre,Yes,1,232881
-8867950.6084,5397867.2562,347,CC-PLP-031,Queenston Drive (PLASP),Social Services,Child Care (PLASP),Child Care Centre,3520 Queenston Dr,,Mississauga,ON,L5C 2G6,905-890-1711,https://peelchildcare.cioc.ca/record/CDR0653,School-Based Centre,Yes,6,130299
-8876310.0673,5446855.8987,348,CC-OTH-228,Rainbow Academy Learning and Child Care,Social Services,Child Care (Other),Child Care Centre,18 King St E,"N1,2,4",Caledon,ON,L7E 1E8,905-857-3544,https://peelchildcare.cioc.ca/record/CAL0018,Community-Based For-Profit Centre,No,5,398504
-8876329.8822,5446857.4431,349,CC-OTH-267,Rainbow Academy Preschool House,Social Services,Child Care (Other),Child Care Centre,18 King St E,O1,Caledon,ON,L7E 1E8,905-857-3544,https://peelchildcare.cioc.ca/record/CAL0018,Community-Based For-Profit Centre,No,5,400163
-8865526.3859,5422105.3117,350,CC-OTH-187,Rainbow Village Day Care,Social Services,Child Care (Other),Child Care Centre,7314 Goreway Dr,,Mississauga,ON,L4T 2V1,905-677-3070,https://peelchildcare.cioc.ca/record/CDR0592,Community-Based For-Profit Centre,No,5,16184
-8877285.8416,5410243.0466,351,CC-FDC-014,Ray Lawson (Family Day Care),Social Services,Child Care (Family Day),Child Care Centre,725 Ray Lawson Blvd,,Brampton,ON,L6Y 0T8,416-922-3434,https://peelchildcare.cioc.ca/record/CDR1131,School-Based Centre,Yes,4,391662
-8874657.5424,5402769.3822,352,CC-PLP-192,Ray Underhill (PLASP),Social Services,Child Care (PLASP),Child Care Centre,32 Suburban Dr,,Mississauga,ON,L5N 1G6,905-890-1711,https://peelchildcare.cioc.ca/record/CDR0722,School-Based Centre,Yes,11,8317
-8872309.3808,5430448.0088,353,CC-PLP-212,Red Willow (PLASP),Social Services,Child Care (PLASP),Child Care Centre,80 Redwillow Rd,,Brampton,ON,L6P 2B1,905-890-1711,https://peelchildcare.cioc.ca/record/CDR0795,School-Based Centre,Yes,8,265688
-8878434.7085,5414903.4868,354,CC-PLP-113,Ridgeview (PLASP),Social Services,Child Care (PLASP),Child Care Centre,25 Brenda Ave,,Brampton,ON,L6Y 2A1,905-890-1711,https://peelchildcare.cioc.ca/record/CDR0766,School-Based Centre,Yes,3,145787
-8865551.1698,5421473.0607,355,CC-PLP-136,Ridgewood (PLASP),Social Services,Child Care (PLASP),Child Care Centre,7207 Cambrett Dr,,Mississauga,ON,L4T 2R3,905-890-1711,https://peelchildcare.cioc.ca/record/CDR1039,School-Based Centre,Yes,5,22523
-8859941.1094,5396099.6272,356,CC-PLP-022,Riverside (PLASP),Social Services,Child Care (PLASP),Child Care Centre,30 John St N,,Mississauga,ON,L5H 2E8,905-890-1711,https://peelchildcare.cioc.ca/record/CDR0841,School-Based Centre,Yes,1,44802
-8878298.4981,5410037.96,357,CC-PLP-213,Roberta Bondar (PLASP),Social Services,Child Care (PLASP),Child Care Centre,30 Pantomine Blvd,,Brampton,ON,L6Y 5N2,905-890-1711,https://peelchildcare.cioc.ca/record/CDR0781,School-Based Centre,Yes,6,280013
-8885832.2881,5424744.7356,358,CC-OTH-283,Rocket Academy & Early Learning Centre,Social Services,Child Care (Other),Child Care Centre,3088 Mayfield Rd,9,Brampton,ON,L6Z 0E3,905-846-7311,https://peelchildcare.cioc.ca/record/CDR0433,Community-Based For-Profit Centre,No,2,298233
-8881547.529,5427002.6264,359,CC-OTH-296,Ross Drive (Caring for Kids),Social Services,Child Care (Other),Child Care Centre,40 Ross Dr,,Brampton,ON,L6R 0W2,905-274-4362,https://peelchildcare.cioc.ca/record/CDR0124,School-Based Centre,Yes,9,
-8885430.4877,5420164.0098,360,CC-PLP-214,Rowntree (PLASP),Social Services,Child Care (PLASP),Child Care Centre,254 Queen Mary Dr,,Brampton,ON,L7A 3L6,905-890-1711,https://peelchildcare.cioc.ca/record/CDR0780,School-Based Centre,Yes,6,227169
-8884099.9482,5417114.6227,361,CC-OTH-303,Royal Academy Montessori Preschool,Social Services,Child Care (Other),Child Care Centre,965 Bovaird Dr W,"5,6,7",Brampton,ON,L6X 5K7,416-200-7264,https://peelchildcare.cioc.ca/record/CDR1394,Community-Based For-Profit Centre,No,5,403799
-8878084.2414,5400390.318,362,CC-OTH-052,Royal Day Care Centre,Social Services,Child Care (Other),Child Care Centre,5650 Montevideo Rd,,Mississauga,ON,L5N 4E4,905-858-8173,https://peelchildcare.cioc.ca/record/CDR0525,Community-Based For-Profit Centre,No,9,114053
-8862646.431,5400158.5489,363,CC-OTH-054,Royal Montessori School,Social Services,Child Care (Other),Child Care Centre,2500 Mimosa Row,,Mississauga,ON,L5B 1P7,905-275-5887,https://peelchildcare.cioc.ca/record/CDR0484,Community-Based For-Profit Centre,No,7,126231
-8864775.8934,5389808.9409,364,CC-OTH-001,Royal Windsor Montessori and Daycare,Social Services,Child Care (Other),Child Care Centre,2157 Royal Windsor Dr,,Mississauga,ON,L5J 1K5,905-822-7575,https://peelchildcare.cioc.ca/record/CDR0574,Community-Based For-Profit Centre,No,2,
-8877849.4859,5422804.8361,365,CC-YMC-019,Russell Barber (YMCA),Social Services,Child Care (YMCA),Child Care Centre,255 North Park Dr,,Brampton,ON,L6S 6A5,905-457-1383,https://peelchildcare.cioc.ca/record/CDR0389,School-Based Centre,Yes,7,
-8876735.421,5396285.827,366,CC-PLP-246,Ruth Thompson (PLASP),Social Services,Child Care (PLASP),Child Care Centre,5605 Freshwater Dr,,Mississauga,ON,L5M 7M8,647-484-4372,https://peelchildcare.cioc.ca/record/CDR1617,School-Based Centre,No,10,277231
-8883149.3945,5424279.0587,367,CC-FDC-027,Sacred Heart (Family Day Care),Social Services,Child Care (Family Day),Child Care Centre,24 Kerwood Pl,,Brampton,ON,L6Z 1Y1,416-922-3434,https://peelchildcare.cioc.ca/record/CDR1037,School-Based Centre,Yes,2,290792
-8862862.1782,5404802.6014,368,CC-OTH-110,Sadochok Ukrainian Nursery School Mississauga,Social Services,Child Care (Other),Child Care Centre,3625 Cawthra Rd,,Mississauga,ON,L5A 2Y4,905-276-4815,https://peelchildcare.cioc.ca/record/CDR0443,Community-Based For-Profit Centre,No,3,26633
-8870579.1476,5393906.7726,369,CC-OTH-022,Salvation Army - Erin Mills,Social Services,Child Care (Other),Child Care Centre,2460 The Collegeway,,Mississauga,ON,L5L 1V3,905-820-6500,https://peelchildcare.cioc.ca/record/CDR0477,Community-Based Non-Profit Centre,No,8,
-8861494.9565,5403525.8406,370,CC-OTH-102,Salvation Army - Mississauga Temple,Social Services,Child Care (Other),Child Care Centre,3173 Cawthra Rd,,Mississauga,ON,L5A 2X4,905-275-8430,https://peelchildcare.cioc.ca/record/CDR0455,Community-Based Non-Profit Centre,No,3,257266
-8875291.8873,5424282.5797,371,CC-OTH-268,Salvation Army - Noah's Ark,Social Services,Child Care (Other),Child Care Centre,9395 Bramalea Rd,,Brampton,ON,L6S 4B7,905-793-5610,https://peelchildcare.cioc.ca/record/CDR0385,Community-Based Non-Profit Centre,No,8,
-8868121.0702,5406517.3642,372,CC-PLP-095,San Lorenzo Ruiz (PLASP),Social Services,Child Care (PLASP),Child Care Centre,100 Barondale Dr,,Mississauga,ON,L4Z 3R1,905-890-1711,https://peelchildcare.cioc.ca/record/CDR0710,School-Based Centre,Yes,5,240542
-8869925.3842,5396318.2131,373,CC-PLP-021,Sawmill Valley (PLASP),Social Services,Child Care (PLASP),Child Care Centre,3625 Sawmill Valley Dr,,Mississauga,ON,L5L 2Z5,905-890-1711,https://peelchildcare.cioc.ca/record/CDR0654,School-Based Centre,Yes,8,26897
-8876264.7135,5403695.3787,374,CC-OTH-363,Schoolhouse Montessori,Social Services,Child Care (Other),Child Care Centre,6517 Mississauga Rd,C,Mississauga,ON,L5N1A6,905-218-3559,https://peel.cioc.ca/record/CDR1788?Number=2,Community-Based For-Profit Centre,No,11,414752
-8877813.151,5400408.1276,375,CC-PLP-048,Settler's Green (PLASP),Social Services,Child Care (PLASP),Child Care Centre,5800 Montevideo Rd,,Mississauga,ON,L5N 2S1,905-890-1711,https://peelchildcare.cioc.ca/record/CDR0727,School-Based Centre,Yes,9,17302
-8879179.5419,5401752.2459,376,CC-PLP-064,Shelter Bay (PLASP),Social Services,Child Care (PLASP),Child Care Centre,6735 Shelter Bay Rd,,Mississauga,ON,L5N 2C5,905-890-1711,https://peelchildcare.cioc.ca/record/CDR0728,School-Based Centre,Yes,9,8849
-8861285.7716,5400125.777,377,CC-OTH-270,Shepherd Montessori Private Catholic School,Social Services,Child Care (Other),Child Care Centre,2246 Camilla Rd,,Mississauga,ON,L5A 2J6,905-270-0011,https://peelchildcare.cioc.ca/record/CDR0490,Community-Based For-Profit Centre,No,7,46928
-8872127.6413,5383669.3788,378,CC-PLP-220,Sheridan College Day Care Centre,Social Services,Child Care (Other),Child Care Centre,1340 Trafalgar Rd,,Oakville,ON,L6H 2L1,905-815-4033,https://www.sheridancollege.ca/services/early-childhood-centres/,Community-Based Non-Profit Centre,No,0,
-8868370.4794,5393001.7524,379,CC-PLP-008,Sheridan Park (PLASP),Social Services,Child Care (PLASP),Child Care Centre,2280 Perran Dr,,Mississauga,ON,L5K 1M1,905-890-1711,https://peelchildcare.cioc.ca/record/CDR0655,School-Based Centre,Yes,2,219537
-8870489.1076,5401106.5093,380,CC-PLP-061,Sherwood Mills (PLASP),Social Services,Child Care (PLASP),Child Care Centre,1385 Sherwood Mills Blvd,,Mississauga,ON,L5V 2B8,905-890-1711,https://peelchildcare.cioc.ca/record/CDR0712,School-Based Centre,Yes,6,296618
-8883824.848,5417252.9885,381,CC-OTH-271,Shining Stars Montessori School,Social Services,Child Care (Other),Child Care Centre,811 Bovaird Dr W,16,Brampton,ON,L6X 0T9,905-454-2273,https://peelchildcare.cioc.ca/record/CDR0401,Community-Based For-Profit Centre,No,5,335283
-8862137.8576,5402682.4976,382,CC-PLP-074,Silver Creek (PLASP),Social Services,Child Care (PLASP),Child Care Centre,460 Silver Creek Blvd,,Mississauga,ON,L5A 2B3,905-890-1711,https://peelchildcare.cioc.ca/record/CDR0920,School-Based Centre,Yes,4,85535
-8862395.1059,5404795.8783,383,CC-PLP-089,Silverthorn (PLASP),Social Services,Child Care (PLASP),Child Care Centre,3535 Cedar Creek Dr,,Mississauga,ON,L4Y 2Y4,905-890-1711,https://peelchildcare.cioc.ca/record/CDR0692,School-Based Centre,Yes,3,22765
-8877188.4204,5404214.0149,384,CC-OTH-277,Simply Smart Child Care,Social Services,Child Care (Other),Child Care Centre,6745 Century Ave,,Mississauga,ON,L5N 8C9,905-593-6780,https://peelchildcare.cioc.ca/record/CDR1053,Community-Based For-Profit Centre,No,9,8787
-8881644.2616,5408816.613,385,CC-OTH-338,Simply Smart Child Care - Brampton,Social Services,Child Care (Other),Child Care Centre,25 Montpelier St,,Brampton,ON,L6Y 6B6,905-593-6780,https://peelchildcare.cioc.ca/record/CDR1620,Community-Based For-Profit Centre,No,6,449951
-8869438.2963,5433819.5632,386,CC-FDC-026,Sir Isaac Brock (Family Day Care),Social Services,Child Care (Family Day),Child Care Centre,45 Meltwater Cres,,Brampton,ON,L6P 2V7,905-890-1711,https://peelchildcare.cioc.ca/record/CDR1292,School-Based Centre,Yes,10,307748
-8875164.0701,5415625.9871,387,CC-OTH-272,Sir Wilfrid Laurier (Caring for Kids),Social Services,Child Care (Other),Child Care Centre,364 Bartley Bull Pky,,Brampton,ON,L6W 2L8,905-274-4362,https://peelchildcare.cioc.ca/record/CDR1132,School-Based Centre,Yes,3,
-8877596.6562,5417444.408,388,CC-YMC-044,Sir Winston Churchill (YMCA),Social Services,Child Care (YMCA),Child Care Centre,89 Ardglen Dr,,Brampton,ON,L6W 1V1,905-943-9622 ext 750,https://peelchildcare.cioc.ca/record/CDR1093,School-Based Centre,Yes,3,158392
-8863864.9016,5408437.1628,389,CC-OTH-137,Small Wunders Child Care,Social Services,Child Care (Other),Child Care Centre,1150 Eglinton Ave E,,Mississauga,ON,L4W 2M6,905-290-0547,https://peelchildcare.cioc.ca/record/CDR0512,Community-Based For-Profit Centre,No,3,
-8883664.1364,5423591.0497,390,CC-PLP-149,Somerset Drive (PLASP),Social Services,Child Care (PLASP),Child Care Centre,50 Somerset Dr,,Brampton,ON,L6Z 1C7,905-890-1711,https://peelchildcare.cioc.ca/record/CDR0768,School-Based Centre,Yes,2,266296
-8879383.4434,5417606.2698,391,CC-OTH-342,Songbirds Montessori - Ellen St,Social Services,Child Care (Other),Child Care Centre,8 Ellen St,,Brampton,ON,L6V 1J6,905-453-0229,https://peelchildcare.cioc.ca/record/CDR1645,Community-Based For-Profit Centre,No,1,164462
-8881320.261,5407194.7674,392,CC-OTH-362,Songbirds Montessori Academy,Social Services,Child Care (Other),Child Care Centre,10 Rivermont Rd,A1,Brampton,ON,L6Y6G7,905-450-8505,https://peel.cioc.ca/record/CDR1787?Number=0,Community-Based For-Profit Centre,No,6,427397
-8883976.7647,5415343.8554,393,CC-OTH-291,Songbirds Montessori School - Brampton West,Social Services,Child Care (Other),Child Care Centre,9705 James Potter Rd,1-3,Brampton,ON,L6X 0G9,905-453-5445,https://peelchildcare.cioc.ca/record/CDR0425,Community-Based For-Profit Centre,No,5,
-8883377.3236,5421478.1208,394,CC-OTH-181,Songbirds Montessori School - Fisherman Drive,Social Services,Child Care (Other),Child Care Centre,2 Fisherman Dr,11A,Brampton,ON,L7A 1B5,905-846-4044,https://peelchildcare.cioc.ca/record/CDR1365,Community-Based For-Profit Centre,No,2,319042
-8878974.062,5416315.0269,395,CC-OTH-155,Songbirds Montessori School Inc.,Social Services,Child Care (Other),Child Care Centre,49 Wellington St,,Brampton,ON,L6V 1K8,905-451-7757,https://peelchildcare.cioc.ca/record/CDR0400,Community-Based For-Profit Centre,No,3,147052
-8886051.3091,5428058.733,396,CC-FDC-016,SouthFields Village (Family Day Care),Social Services,Child Care (Family Day),Child Care Centre,110 Learmont Ave,,Caledon,ON,L7C 3R1,416-922-3434,https://peelchildcare.cioc.ca/record/CDR1036,School-Based Centre,Yes,2,400217
-8882655.5871,5413916.9049,397,CC-PLP-236,Springbrook (PLASP),Social Services,Child Care (PLASP),Child Care Centre,145 Jordensen Dr,,Brampton,ON,L6X 0S1,905-890-1711 ext115,https://peelchildcare.cioc.ca/record/CDR1395,School-Based Centre,Yes,2,399969
-8879570.7779,5427395.5141,398,CC-PLP-164,Springdale (PLASP),Social Services,Child Care (PLASP),Child Care Centre,100 Dewside Dr,,Brampton,ON,L6T 2C9,905-890-1711,https://peelchildcare.cioc.ca/record/CDR0774,School-Based Centre,Yes,9,245269
-8876084.1443,5428977.4382,399,CC-OTH-205,Springdale Learning Centre (Robert J. Lee Public School),Social Services,Child Care (Other),Child Care Centre,160 Mountainash Rd,,Brampton,ON,L6R 1J1,905-790-6958,https://peelchildcare.cioc.ca/record/CDR0843,School-Based Centre,Yes,10,75696
-8877894.6048,5430727.4603,400,CC-OTH-269,Springdale Learning Centre (Shaw Public School),Social Services,Child Care (Other),Child Care Centre,10 Father Tobin Rd,,Brampton,ON,L6R 3K2,905-790-6958,https://peelchildcare.cioc.ca/record/CDR0848,School-Based Centre,Yes,10,279023
-8867064.2786,5397154.6273,401,CC-PLP-026,Springfield (PLASP),Social Services,Child Care (PLASP),Child Care Centre,3251 The Credit Woodlands,,Mississauga,ON,L5C 2J7,905-890-1711,https://peelchildcare.cioc.ca/record/CDR0857,School-Based Centre,Yes,6,312924
-8881159.54,5422932.9692,402,CC-PLP-145b,St. Agnes (PLASP),Social Services,Child Care (PLASP),Child Care Centre,103 Richvale Dr S,,Brampton,ON,L6Z 1C6,905-890-1711,https://peelchildcare.cioc.ca/record/CDR0748,School-Based Centre,Yes,2,170247
-8881147.1875,5422964.8962,403,CC-PLP-145a,St. Agnes Early Learning Centre (PLASP),Social Services,Child Care (PLASP),Child Care Centre,103 Richvale Dr S,,Brampton,ON,L6Z 1C6,905-890-1711,https://peelchildcare.cioc.ca/record/CDR0435,School-Based Centre,No,2,
-8887447.1316,5418589.3905,404,CC-YMC-045,St. Aidan (YMCA),Social Services,Child Care (YMCA),Child Care Centre,34 Buick Blvd,,Brampton,ON,L7A 3B9,647-448-9400,https://peelchildcare.cioc.ca/record/CDR0734,School-Based Centre,Yes,6,305373
-8882084.8823,5400765.6754,405,CC-PLP-248,St. Albert of Jerusalem (PLASP),Social Services,Child Care (PLASP),Child Care Centre,7185 Rosehurst Dr,,Mississauga,ON,L5N 7G6,1-888-739-4102,https://peelchildcare.cioc.ca/record/CDR0729?Number=131,School-Based Centre,No,,228869
-8882084.8818,5400765.6716,406,CC-PLP-051,St. Albert of Jerusalem (PLASP),Social Services,Child Care (PLASP),Child Care Centre,7185 Rosehurst Dr,,Mississauga,ON,L5N 7G6,905-890-1711,https://peelchildcare.cioc.ca/record/CDR0729,School-Based Centre,Yes,10,270757
-8859914.1888,5406657.0308,407,CC-PLP-097,St. Alfred (PLASP),Social Services,Child Care (PLASP),Child Care Centre,3341 Havenwood Dr,,Mississauga,ON,L4X 2M2,905-890-1711,https://peelchildcare.cioc.ca/record/CDR0693,School-Based Centre,Yes,3,25988
-8880173.3902,5409189.3287,408,CC-PLP-238,St. Alphonsa (PLASP),Social Services,Child Care (PLASP),Child Care Centre,60 Olivia Marie Rd,,Brampton,ON,L6Y 0M4,1-888-739-4102,https://peelchildcare.cioc.ca/record/CDR1428,School-Based Centre,Yes,4,
-8869305.1693,5429221.7817,409,CC-PLP-224,St. Andre Bessette (PLASP),Social Services,Child Care (PLASP),Child Care Centre,25 Riverstone Dr,,Brampton,ON,L6Y 0T7,905-454-1477,https://peelchildcare.cioc.ca/record/CDR1277,School-Based Centre,Yes,8,317638
-8884473.489,5418454.8485,410,CC-YMC-046,St. Angela Merici (YMCA),Social Services,Child Care (YMCA),Child Care Centre,83 Edenbrook Hill Dr,,Brampton,ON,L7A 2N7,416-358-2334,https://peelchildcare.cioc.ca/record/CDR0733,School-Based Centre,No,6,268347
-8879232.6221,5419069.677,411,CC-PLP-215,St. Anne (PLASP),Social Services,Child Care (PLASP),Child Care Centre,124 Vodden St E,,Brampton,ON,L6V 1M5,905-890-1711,https://peelchildcare.cioc.ca/record/CDR1046,School-Based Centre,No,1,172140
-8876861.7906,5424725.404,412,CC-PLP-158,St. Anthony (PLASP),Social Services,Child Care (PLASP),Child Care Centre,950 North Park Dr,,Brampton,ON,L4Z 3E9,905-890-1711,https://peelchildcare.cioc.ca/record/CDR0723,School-Based Centre,Yes,7,65849
-8877314.5894,5407433.7999,413,CC-PLP-099b,St. Barbara (PLASP),Social Services,Child Care (PLASP),Child Care Centre,1455 Samuelson Cir,,Mississauga,ON,L5N 7Z2,905-890-1711,https://peelchildcare.cioc.ca/record/CDR0711,School-Based Centre,Yes,11,353065
-8877305.0928,5407458.3849,414,CC-PLP-099a,St. Barbara Early Learning Centre (PLASP),Social Services,Child Care (PLASP),Child Care Centre,1455 Samuelson Cir,,Mississauga,ON,L5N 7Z2,905-890-1711,https://peelchildcare.cioc.ca/record/CDR0564,School-Based Centre,No,11,
-8862474.9809,5407366.8516,415,CC-PLP-101,St. Basil (PLASP),Social Services,Child Care (PLASP),Child Care Centre,4235 Golden Orchard Dr,,Mississauga,ON,L4W 3G1,905-890-1711,https://peelchildcare.cioc.ca/record/CDR0670,School-Based Centre,Yes,3,24324
-8869206.874,5400950.094,416,CC-FDC-018,St. Bernadette Child Care Centre (Family Day Care),Social Services,Child Care (Family Day),Child Care Centre,1060 White Clover Way,,Mississauga,ON,L5V 1G7,416-922-3434,https://peelchildcare.cioc.ca/record/CDR0502,School-Based Centre,No,6,
-8876118.4417,5395701.4241,417,CC-YMC-047,St. Bernard of Clairvaux (YMCA),Social Services,Child Care (YMCA),Child Care Centre,3345 Escada Dr,,Mississauga,ON,L5M 7V5,647-267-2400,https://peelchildcare.cioc.ca/record/CDR0914,School-Based Centre,Yes,10,308546
-8886545.746,5417163.7258,418,CC-PLP-194,St. Bonaventure (PLASP),Social Services,Child Care (PLASP),Child Care Centre,35 McCrimmon Dr,,Brampton,ON,L7A 2Z5,1-888-739-4102,https://peelchildcare.cioc.ca/record/CDR0782,School-Based Centre,Yes,6,279022
-8878806.8832,5412731.739,419,CC-PLP-109,St. Brigid (PLASP),Social Services,Child Care (PLASP),Child Care Centre,81 Torrance Woods,,Brampton,ON,L6Y 2X4,905-890-1711,https://peelchildcare.cioc.ca/record/CDR0918,School-Based Centre,Yes,4,170458
-8862247.1414,5399757.5109,420,CC-YMC-048,St. Catherine of Siena (YMCA),Social Services,Child Care (YMCA),Child Care Centre,2350 Hurontario St,,Mississauga,ON,L5B 1N1,647-924-0240,https://peelchildcare.cioc.ca/record/CDR0865,School-Based Centre,Yes,7,199173
-8881175.0623,5419817.2152,421,CC-PLP-127,St. Cecilia (PLASP),Social Services,Child Care (PLASP),Child Care Centre,10 Brickyard Way,,Brampton,ON,L6V 4L5,905-890-1711,https://peelchildcare.cioc.ca/record/CDR0746?Number=191,School-Based Centre,Yes,1,297576
-8864617.5898,5404614.6147,422,CC-PLP-085,St. Charles Garnier (PLASP),Social Services,Child Care (PLASP),Child Care Centre,4233 Central Pky E,,Mississauga,ON,L4Z 1M7,905-890-1711,https://peelchildcare.cioc.ca/record/CDR0671,School-Based Centre,Yes,4,240443
-8864015.8366,5391778.76,423,CC-YMC-001,St. Christopher (YMCA),Social Services,Child Care (YMCA),Child Care Centre,1195 Clarkson Rd N,,Mississauga,ON,L5J 2W1,647-203-3900,https://peelchildcare.cioc.ca/record/CDR0664,School-Based Centre,Yes,2,337579
-8871784.297,5395392.8034,424,CC-PLP-012,St. Clare (PLASP),Social Services,Child Care (PLASP),Child Care Centre,4140 Glen Erin Dr,,Mississauga,ON,L5L 2B1,905-890-1711,https://peelchildcare.cioc.ca/record/CDR0641,School-Based Centre,Yes,8,28156
-8889690.9883,5446825.8587,425,CC-YMC-063,St. Cornelius (YMCA),Social Services,Child Care (YMCA),Child Care Centre,16066 Innis Lake Rd,,Caledon,ON,L7C 2Z2,519-942-3290,https://peelchildcare.cioc.ca/record/CAL0434,School-Based Centre,Yes,3,92392
-8887818.0229,5416052.2671,426,CC-PLP-242,St. Daniel Camboni (PLASP),Social Services,Child Care (PLASP),Child Care Centre,120 Veterans Dr,,Brampton,ON,L7A 0B5,1-888-739-4102,https://peelchildcare.cioc.ca/record/CDR1481,School-Based Centre,Yes,6,442357
-8868422.0851,5399910.4336,427,CC-PLP-045,St. David of Wales (PLASP),Social Services,Child Care (PLASP),Child Care Centre,4200 Beacon Lane,,Mississauga,ON,L5C 3V0,905-890-1711,https://peelchildcare.cioc.ca/record/CDR0642,School-Based Centre,Yes,6,28336
-8858787.2533,5399711.8068,428,CC-PLP-195,St. Dominic (PLASP),Social Services,Child Care (PLASP),Child Care Centre,515 Hartsdale Ave,,Mississauga,ON,L5G 2G7,905-890-1711,https://peelchildcare.cioc.ca/record/CDR1044,School-Based Centre,Yes,1,136134
-8878737.0162,5398621.7725,429,CC-PLP-036b,St. Edith Stein (PLASP),Social Services,Child Care (PLASP),Child Care Centre,6234 Osprey Blvd,,Mississauga,ON,L5N 5V5,905-890-1711,https://peelchildcare.cioc.ca/record/CDR0528,School-Based Centre,Yes,10,271173
-8878706.199,5398609.4154,430,CC-PLP-036a,St. Edith Stein Early Learning Centre (PLASP),Social Services,Child Care (PLASP),Child Care Centre,6234 Osprey Blvd,,Mississauga,ON,L5N 5V5,905-890-1711,https://peelchildcare.cioc.ca/record/CDR0937,School-Based Centre,No,10,
-8858464.2389,5403552.3414,431,CC-PLP-079,St. Edmund (PLASP),Social Services,Child Care (PLASP),Child Care Centre,1250 Melton Dr,,Mississauga,ON,L4Y 1L5,905-890-1711,https://peelchildcare.cioc.ca/record/CDR0672,School-Based Centre,Yes,1,22541
-8876721.4467,5400316.9728,432,CC-PLP-047,St. Elizabeth Seton (PLASP),Social Services,Child Care (PLASP),Child Care Centre,6133 Glen Erin Dr,,Mississauga,ON,L5N 2T7,905-890-1711,https://peelchildcare.cioc.ca/record/CDR0667,School-Based Centre,Yes,9,1629
-8887238.5602,5427201.953,433,CC-PLP-247,St. Evan (PLASP),Social Services,Child Care (PLASP),Child Care Centre,500 Dougall Ave,,Caledon,ON,L7C 4C5,905-890-1711,https://peelchildcare.cioc.ca/record/CDR1654,School-Based Centre,Yes,2,423155
-8877804.8948,5397120.3536,434,CC-PLP-024,St. Faustina (PLASP),Social Services,Child Care (PLASP),Child Care Centre,3420 McDowell Dr,,Mississauga,ON,L5M 6R7,905-890-1711,https://peelchildcare.cioc.ca/record/CDR0715,School-Based Centre,Yes,10,275689
-8868193.3579,5405715.1167,435,CC-FDC-017,St. Francis Xavier (Family Day Care),Social Services,Child Care (Family Day),Child Care Centre,50 Bristol Rd W,,Mississauga,ON,L5R 3K3,416-922-3434,https://peelchildcare.cioc.ca/record/CDR0534,School-Based Centre,Yes,5,259249
-8876425.64,5415267.1087,436,CC-PLP-115,St. Francis Xavier (PLASP),Social Services,Child Care (PLASP),Child Care Centre,111 Bartley Bull Pky,,Brampton,ON,L6W 2J8,905-890-1711,https://peelchildcare.cioc.ca/record/CDR0919,School-Based Centre,Yes,3,48102
-8869048.9999,5392501.5825,437,CC-PLP-006,St. Francis of Assisi (PLASP),Social Services,Child Care (PLASP),Child Care Centre,2480 Thorn Lodge Dr,,Mississauga,ON,L5K 1K5,905-890-1711,https://peelchildcare.cioc.ca/record/CDR0643,School-Based Centre,Yes,2,37715
-8867338.835,5397447.7993,438,CC-PLP-197,St. Gerard (PLASP),Social Services,Child Care (PLASP),Child Care Centre,1300 McBride Ave,,Mississauga,ON,L5C 1M8,905-890-1711,https://peelchildcare.cioc.ca/record/CDR1042,School-Based Centre,Yes,6,295791
-8873009.3225,5405165.3367,439,CC-PLP-090b,St. Gregory (PLASP),Social Services,Child Care (PLASP),Child Care Centre,1075 Swinbourne Dr,,Mississauga,ON,L5V 1B9,905-890-1711,https://peelchildcare.cioc.ca/record/CDR0698,School-Based Centre,Yes,11,278171
-8873013.0319,5405220.3346,440,CC-PLP-090a,St. Gregory Early Learning Centre (PLASP),Social Services,Child Care (PLASP),Child Care Centre,1075 Swinbourne Dr,,Mississauga,ON,L5V 1B9,905-890-1711,https://peelchildcare.cioc.ca/record/CDR0565,School-Based Centre,No,11,
-8866691.8821,5389290.674,441,CC-PLP-235,St. Helen (PLASP),Social Services,Child Care (PLASP),Child Care Centre,1325 Bodley Rd,,Mississauga,ON,L5J 3X1,1-888-739-4102,https://peelchildcare.cioc.ca/record/CDR1364,School-Based Centre,Yes,2,139208
-8870459.0462,5401585.1386,442,CC-FDC-001,St. Herbert (Family Day Care),Social Services,Child Care (Family Day),Child Care Centre,5180 Fallingbrook Dr,,Mississauga,ON,L5V 2C6,416-922-3434,https://peelchildcare.cioc.ca/record/CDR0541,School-Based Centre,Yes,6,
-8867827.0124,5404358.878,443,CC-YMC-015,St. Hilary (YMCA),Social Services,Child Care (YMCA),Child Care Centre,5070 Fairwind Dr,,Mississauga,ON,L5R 2N4,905-568-1549,https://peelchildcare.cioc.ca/record/CDR0535,School-Based Centre,Yes,5,
-8861083.0975,5399127.8261,444,CC-OTH-046,St. Hilary's Day Care Centre,Social Services,Child Care (Other),Child Care Centre,2055 Hurontario St,,Mississauga,ON,L5A 2E6,905-279-2273,https://peelchildcare.cioc.ca/record/CDR0456,Community-Based Non-Profit Centre,No,7,
-8879919.5667,5424665.1676,445,CC-PLP-156,St. Isaac Jogues (PLASP),Social Services,Child Care (PLASP),Child Care Centre,300 Great Lakes Dr,,Brampton,ON,L6R 2X7,905-890-1711,https://peelchildcare.cioc.ca/record/CDR0770,School-Based Centre,Yes,9,288171
-8883120.5938,5412501.6205,446,CC-PLP-245,St. Jacinta Marto (PLASP),Social Services,Child Care (PLASP),Child Care Centre,40 Fallowfield Rd,,Brampton,ON,L6X 0W5,647-484-4372,https://peelchildcare.cioc.ca/record/CDR1621,School-Based Centre,Yes,5,451861
-8857876.4684,5397997.6376,447,CC-YMC-064,St. James (YMCA),Social Services,Child Care (YMCA),Child Care Centre,98 Wanita Rd,,Mississauga,ON,L6Y 0T7,905-454-1477,https://peelchildcare.cioc.ca/record/CDR1290,School-Based Centre,Yes,1,86627
-8874912.1069,5424405.5525,448,CC-PLP-155,St. Jean Brebeuf (PLASP),Social Services,Child Care (PLASP),Child Care Centre,63 Glenforest Rd,,Brampton,ON,L6S 4E1,905-890-1711,https://peelchildcare.cioc.ca/record/CDR0737,School-Based Centre,Yes,8,67035
-8883397.8054,5414461.0464,449,CC-PLP-225,St. Jean-Marie Vianney (PLASP),Social Services,Child Care (PLASP),Child Care Centre,75 Jordensen Dr,,Brampton,ON,L6P 3V8,905-791-8408,https://peelchildcare.cioc.ca/record/CDR1276,School-Based Centre,Yes,5,350136
-8864436.6084,5397497.4363,450,CC-PLP-032,St. Jerome (PLASP),Social Services,Child Care (PLASP),Child Care Centre,790 Paisley Blvd W,,Mississauga,ON,L5C 3P5,905-890-1711,https://peelchildcare.cioc.ca/record/CDR0644,School-Based Centre,Yes,7,36394
-8879608.3434,5421177.6386,451,CC-PLP-132,St. Joachim (PLASP),Social Services,Child Care (PLASP),Child Care Centre,435 Rutherford Rd N,,Brampton,ON,L6V 3V9,905-890-1711,https://peelchildcare.cioc.ca/record/CDR0855,School-Based Centre,Yes,1,235577
-8875862.3449,5425624.5885,452,CC-PLP-161,St. John Bosco (PLASP),Social Services,Child Care (PLASP),Child Care Centre,1025 North Park Dr,,Brampton,ON,L6S 4E1,905-890-1711,https://peelchildcare.cioc.ca/record/CDR0738,School-Based Centre,Yes,8,184470
-8873391.9871,5420868.3638,453,CC-PLP-130,St. John Fisher (PLASP),Social Services,Child Care (PLASP),Child Care Centre,330 Balmoral Dr,,Brampton,ON,L6T 1V6,905-890-1711,https://peelchildcare.cioc.ca/record/CDR0739,School-Based Centre,Yes,7,60657
-8872119.6789,5422479.3161,454,CC-PLP-140,St. John Henry Newman C.S. (PLASP),Social Services,Child Care (PLASP),Child Care Centre,698 Balmoral Dr,,Brampton,ON,L6T 1Z1,905-890-1711,https://peelchildcare.cioc.ca/record/CDR0742,School-Based Centre,Yes,7,58444
-8877433.9606,5448448.5474,455,CC-PLP-172,St. John Paul II (PLASP),Social Services,Child Care (PLASP),Child Care Centre,9094 Bolton Heights Rd,,Caledon,ON,L7E 5R8,905-890-1711,https://peelchildcare.cioc.ca/record/CDR0604,School-Based Centre,Yes,5,197779
-8866029.472,5398463.6735,456,CC-PLP-174,St. John XXIII (PLASP),Social Services,Child Care (PLASP),Child Care Centre,915 McBride Ave,,Mississauga,ON,L5C 1M1,905-890-1711,https://peelchildcare.cioc.ca/record/CDR1047,School-Based Centre,No,6,218970
-8879751.379,5400565.5158,457,CC-PLP-049,St. John of the Cross (PLASP),Social Services,Child Care (PLASP),Child Care Centre,3180 Aquitaine Ave,,Mississauga,ON,L5N 3S5,905-890-1711,https://peelchildcare.cioc.ca/record/CDR0668,School-Based Centre,Yes,9,107188
-8873607.7867,5445505.1503,458,CC-YMC-022,St. John the Baptist (YMCA),Social Services,Child Care (YMCA),Child Care Centre,299 Landsbridge St,,Caledon,ON,L7E 2K4,647-203-3800,https://peelchildcare.cioc.ca/record/CDR0605,School-Based Centre,Yes,5,215441
-8873273.6943,5400897.7353,459,CC-PLP-057,St. Joseph (PLASP),Social Services,Child Care (PLASP),Child Care Centre,249 Church St,,Mississauga,ON,L5M 1N1,905-890-1711,https://peelchildcare.cioc.ca/record/CDR1040,School-Based Centre,Yes,11,183493
-8880945.0502,5415561.1734,460,CC-YMC-077,St. Joseph (YMCA),Social Services,Child Care (YMCA),Child Care Centre,8 Parkway Ave,,Brampton,ON,L6X 2G4,905-451-1400 ext 483,https://peelchildcare.cioc.ca/record/CDR1351?Number=50,School-Based Centre,Yes,5,57612
-8886149.6013,5422317.7756,461,CC-PLP-198,St. Josephine Bakhita (PLASP),Social Services,Child Care (PLASP),Child Care Centre,430 Van Kirk Dr,,Brampton,ON,L7A 0J2,905-890-1711,https://peelchildcare.cioc.ca/record/CDR0783,School-Based Centre,Yes,2,299385
-8866900.6848,5405824.1029,462,CC-PLP-093b,St. Jude (PLASP),Social Services,Child Care (PLASP),Child Care Centre,175 Nahani Way,,Mississauga,ON,L4Z 3J6,905-890-1711,https://peelchildcare.cioc.ca/record/CDR0562,School-Based Centre,Yes,5,112169
-8866857.838,5405821.5739,463,CC-PLP-093a,St. Jude Early Learning Centre (PLASP),Social Services,Child Care (PLASP),Child Care Centre,175 Nahani Way,,Mississauga,ON,L4Z 3J6,905-890-1711,https://peelchildcare.cioc.ca/record/CDR0979,School-Based Centre,No,5,
-8874800.5621,5406843.2632,464,CC-PLP-098,St. Julia (PLASP),Social Services,Child Care (PLASP),Child Care Centre,6770 Historic Trail,,Mississauga,ON,L5W 1J3,905-890-1711,https://peelchildcare.cioc.ca/record/CDR0718,School-Based Centre,Yes,11,254090
-8875662.063,5413071.8632,465,CC-PLP-110b,St. Kevin (PLASP),Social Services,Child Care (PLASP),Child Care Centre,103 Malta Ave,,Brampton,ON,L6Y 4C8,905-890-1711,https://peelchildcare.cioc.ca/record/CDR0974,School-Based Centre,Yes,4,55533
-8875698.0948,5413104.4914,466,CC-PLP-110a,St. Kevin Early Learning Centre (PLASP),Social Services,Child Care (PLASP),Child Care Centre,103 Malta Ave,,Brampton,ON,L6Y 4C8,905-890-1711,https://peelchildcare.cioc.ca/record/CDR0437,School-Based Centre,No,4,
-8882279.2561,5422706.4473,467,CC-YMC-049,St. Leonard (YMCA),Social Services,Child Care (YMCA),Child Care Centre,185 Conestoga Dr,,Brampton,ON,L6Z 2Z7,1-866-317-6251 ext 750,https://peelchildcare.cioc.ca/record/CDR0983,School-Based Centre,Yes,2,318624
-8866135.0492,5390874.9746,468,CC-YMC-050,St. Louis (YMCA),Social Services,Child Care (YMCA),Child Care Centre,1450 Lewisham Dr,,Mississauga,ON,L5J 3R3,1-647-298-0752,https://peelchildcare.cioc.ca/record/CDR0624,School-Based Centre,Yes,2,135229
-8885650.1731,5420389.176,469,CC-PLP-216,St. Lucy (PLASP),Social Services,Child Care (PLASP),Child Care Centre,25 Kanata Rd,,Brampton,ON,L7A 3R2,905-890-1711,https://peelchildcare.cioc.ca/record/CDR0785,School-Based Centre,Yes,6,265668
-8861627.8871,5395587.669,470,CC-PLP-015,St. Luke (PLASP),Social Services,Child Care (PLASP),Child Care Centre,1280 Cobalt St,,Mississauga,ON,L5H 4L8,905-890-1711,https://peelchildcare.cioc.ca/record/CDR0659,School-Based Centre,Yes,2,285479
-8869507.1718,5393975.7543,471,CC-PLP-011,St. Margaret of Scotland (PLASP),Social Services,Child Care (PLASP),Child Care Centre,2266 Council Ring Rd,,Mississauga,ON,L5L 1C1,905-890-1711,https://peelchildcare.cioc.ca/record/CDR0646,School-Based Centre,Yes,8,30292
-8878155.9715,5423391.5384,472,CC-PLP-147,St. Margarite Bourgeoys (PLASP),Social Services,Child Care (PLASP),Child Care Centre,550 North Park Dr,,Brampton,ON,L6S 4J8,905-890-1711,https://peelchildcare.cioc.ca/record/CDR0740,School-Based Centre,Yes,7,175755
-8882070.1368,5418573.3236,473,CC-FDC-009,St. Maria Goretti Child Care Centre (Family Day Care),Social Services,Child Care (Family Day),Child Care Centre,121 Royal Orchard Dr,,Brampton,ON,L6X 4K9,416-922-3434,https://peelchildcare.cioc.ca/record/CDR0406,School-Based Centre,No,5,169176
-8870030.6792,5396383.7497,474,CC-PLP-023,St. Mark (PLASP),Social Services,Child Care (PLASP),Child Care Centre,3675 Sawmill Valley Dr,,Mississauga,ON,L5L 2Z5,905-890-1711,https://peelchildcare.cioc.ca/record/CDR0645,School-Based Centre,Yes,8,106606
-8878099.8866,5416613.4204,475,CC-YMC-051,St. Mary (YMCA),Social Services,Child Care (YMCA),Child Care Centre,66 Main St S,,Brampton,ON,L6W 2C6,647-924-0130,https://peelchildcare.cioc.ca/record/CDR1092,School-Based Centre,Yes,3,223312
-8867256.1128,5403675.1248,476,CC-PLP-077b,St. Matthew (PLASP),Social Services,Child Care (PLASP),Child Care Centre,280 Kingsbridge Garden Cir,,Mississauga,ON,L5R 1L3,905-890-1711,https://peelchildcare.cioc.ca/record/CDR0563,School-Based Centre,Yes,4,291132
-8867224.6042,5403648.9787,477,CC-PLP-077a,St. Matthew Early Learning Centre (PLASP),Social Services,Child Care (PLASP),Child Care Centre,280 Kingsbridge Garden Cir,,Mississauga,ON,L5R 1L3,905-890-1711,https://peelchildcare.cioc.ca/record/CDR0935,School-Based Centre,No,4,
-8880147.6129,5413700.2587,478,CC-PLP-112,St. Monica (PLASP),Social Services,Child Care (PLASP),Child Care Centre,60 Sterritt Dr,,Brampton,ON,L6Y 5B6,905-890-1711,https://peelchildcare.cioc.ca/record/CDR0856,School-Based Centre,Yes,4,51375
-8878700.5244,5445555.3248,479,CC-YMC-021,St. Nicholas (YMCA),Social Services,Child Care (YMCA),Child Care Centre,120 Harvest Moon Dr,,Caledon,ON,L7E 2W1,416-819-8262,https://peelchildcare.cioc.ca/record/CDR0606,School-Based Centre,Yes,4,303130
-8875156.464,5437266.1026,480,CC-PLP-200,St. Patrick (PLASP),Social Services,Child Care (PLASP),Child Care Centre,11948 The Gore Rd,,Brampton,ON,L6P 0A2,905-890-1711,https://peelchildcare.cioc.ca/record/CDR1011,School-Based Centre,Yes,10,215718
-8864659.7365,5400514.657,481,CC-PLP-054,St. Philip (PLASP),Social Services,Child Care (PLASP),Child Care Centre,345 Fairview Rd W,,Mississauga,ON,L5B 3W5,905-890-1711,https://peelchildcare.cioc.ca/record/CDR0673,School-Based Centre,Yes,7,268315
-8865804.2196,5404982.4858,482,CC-PLP-088,St. Pio of Pietrelcina (PLASP),Social Services,Child Care (PLASP),Child Care Centre,4765 Huron Heights Dr,,Mississauga,ON,L4Z 4G9,905-890-1711,https://peelchildcare.cioc.ca/record/CDR0696,School-Based Centre,Yes,4,277168
-8866152.6723,5422409.6644,483,CC-PLP-201,St. Raphael (PLASP),Social Services,Child Care (PLASP),Child Care Centre,3470 Clara Dr,,Mississauga,ON,L4T 2C7,905-890-1711,https://peelchildcare.cioc.ca/record/CDR0978,School-Based Centre,Yes,5,
-8872345.3898,5402974.3108,484,CC-FDC-019,St. Raymond (Family Day Care),Social Services,Child Care (Family Day),Child Care Centre,5735 Whitehorn Ave,,Mississauga,ON,L5V 2A9,416-922-3434,https://peelchildcare.cioc.ca/record/CDR0859,School-Based Centre,Yes,6,267612
-8880046.4603,5402743.0301,485,CC-PLP-071,St. Richard (PLASP),Social Services,Child Care (PLASP),Child Care Centre,7270 Copenhagen Rd,,Mississauga,ON,L5N 2C3,905-890-1711,https://peelchildcare.cioc.ca/record/CDR0702,School-Based Centre,Yes,9,9306
-8886038.4872,5424829.8298,486,CC-PLP-157,St. Rita (PLASP),Social Services,Child Care (PLASP),Child Care Centre,30 Summer Valley Dr,,Brampton,ON,L6V 2V7,905-890-1711,https://peelchildcare.cioc.ca/record/CDR0777,School-Based Centre,Yes,2,80078
-8871973.2902,5397728.6317,487,CC-YMC-052,St. Rose of Lima (YMCA),Social Services,Child Care (YMCA),Child Care Centre,4590 The Gallops,,Mississauga,ON,L5M 2W4,647-963-9582,https://peelchildcare.cioc.ca/record/CDR0981,School-Based Centre,Yes,8,289148
-8874682.6082,5394677.242,488,CC-PLP-202,St. Sebastian (PLASP),Social Services,Child Care (PLASP),Child Care Centre,3460 Aquinas Ave,,Mississauga,ON,L5M 7L2,905-890-1711,https://peelchildcare.cioc.ca/record/CDR0719,School-Based Centre,Yes,8,281031
-8879961.4672,5398421.9821,489,CC-YMC-007,St. Simon Stock (YMCA),Social Services,Child Care (YMCA),Child Care Centre,6440 Lisgar Dr,,Mississauga,ON,L5N 6X3,647-299-5015,https://peelchildcare.cioc.ca/record/CDR0913,School-Based Centre,Yes,10,297567
-8860644.0455,5407116.9441,490,CC-YMC-078,St. Sofia (YMCA),Social Services,Child Care (YMCA),Child Care Centre,3540 Havenwood Dr,,Mississauga,ON,L4X 2M9,647-963-9592,https://peelchildcare.cioc.ca/record/CDR0977,School-Based Centre,Yes,3,223236
-8885050.9335,5423499.7243,491,CC-PLP-148b,St. Stephen (PLASP),Social Services,Child Care (PLASP),Child Care Centre,17 Colonel Bertram Rd,,Brampton,ON,L6Z 4N8,905-890-1711,https://peelchildcare.cioc.ca/record/CDR0930,School-Based Centre,Yes,2,177363
-8885021.1091,5423475.4425,492,CC-PLP-148a,St. Stephen Early Learning Centre (PLASP),Social Services,Child Care (PLASP),Child Care Centre,17 Colonel Bertram Rd,,Brampton,ON,L6Z 4N8,905-890-1711,https://peelchildcare.cioc.ca/record/CDR0434,School-Based Centre,No,2,
-8877933.9555,5402429.9221,493,CC-PLP-069,St. Teresa of Avila (PLASP),Social Services,Child Care (PLASP),Child Care Centre,6675 Montevideo Rd,,Mississauga,ON,L5N 4E8,905-890-1711,https://peelchildcare.cioc.ca/record/CDR0703,School-Based Centre,Yes,9,255080
-8861513.1036,5405739.4285,494,CC-PLP-092,St. Teresa of Calcutta (PLASP),Social Services,Child Care (PLASP),Child Care Centre,1120 Runningbrook Dr,,Mississauga,ON,L4Y 2T2,905-890-1711,https://peelchildcare.cioc.ca/record/CDR0691,School-Based Centre,Yes,3,
-8880813.5252,5400622.0247,495,CC-PLP-050,St. Therese of the Child Jesus (PLASP),Social Services,Child Care (PLASP),Child Care Centre,6930 Forest Park Dr,,Mississauga,ON,L5N 6X7,905-890-1711,https://peelchildcare.cioc.ca/record/CDR0704,School-Based Centre,Yes,10,280392
-8861263.2374,5404603.1028,496,CC-PLP-086,St. Thomas More (PLASP),Social Services,Child Care (PLASP),Child Care Centre,3270 Tomken Rd,,Mississauga,ON,L4Y 2Y7,905-890-1711,https://peelchildcare.cioc.ca/record/CDR0674,School-Based Centre,Yes,3,109967
-8860959.8145,5400673.5378,497,CC-PLP-056,St. Timothy (PLASP),Social Services,Child Care (PLASP),Child Care Centre,2214 Cliff Rd,,Mississauga,ON,L5A 2N9,905-890-1711,https://peelchildcare.cioc.ca/record/CDR0694,School-Based Centre,Yes,7,253306
-8883314.5263,5417455.7177,498,CC-PLP-123,St. Ursula (PLASP),Social Services,Child Care (PLASP),Child Care Centre,11 Dwellers Rd,,Brampton,ON,L6X 5C1,905-890-1711,https://peelchildcare.cioc.ca/record/CDR0773,School-Based Centre,Yes,5,292794
-8870996.9496,5403850.8687,499,CC-FDC-020,St. Valentine (Family Day Care),Social Services,Child Care (Family Day),Child Care Centre,5610 Heatherleigh Ave,,Mississauga,ON,L5V 2V9,416-922-3434,https://peelchildcare.cioc.ca/record/CDR0917,School-Based Centre,Yes,6,271616
-8874093.5729,5408546.8306,500,CC-PLP-103,St. Veronica (PLASP),Social Services,Child Care (PLASP),Child Care Centre,680 Novo Star Dr,,Mississauga,ON,L5W 1C7,905-890-1711,https://peelchildcare.cioc.ca/record/CDR0716,School-Based Centre,Yes,11,227954
-8863443.4353,5405805.1552,501,CC-PLP-217,St. Vincent de Paul (PLASP),Social Services,Child Care (PLASP),Child Care Centre,665 Willowbank Trail,,Mississauga,ON,L4W 3L6,905-890-1711,https://peelchildcare.cioc.ca/record/CDR0675,School-Based Centre,Yes,3,303930
-8878640.5272,5428459.7243,502,CC-PLP-218,Stanley Mills (PLASP),Social Services,Child Care (PLASP),Child Care Centre,286 Sunny Meadow Blvd,,Brampton,ON,L6R 3C3,905-890-1711,https://peelchildcare.cioc.ca/record/CDR0791,School-Based Centre,Yes,9,236991
-8876880.4066,5402655.5868,503,CC-OTH-079,Streetsville Children's Centre - Millcreek,Social Services,Child Care (Other),Child Care Centre,6535 Millcreek Dr,"51,52",Mississauga,ON,L5N 2M2,905-813-7318,https://peelchildcare.cioc.ca/record/CDR0526,Community-Based For-Profit Centre,No,9,86867
-8861265.8786,5409303.1646,504,CC-PLP-104,Sts. Martha and Mary (PLASP),Social Services,Child Care (PLASP),Child Care Centre,1760 Bough Beeches Blvd,,Mississauga,ON,L4W 2B9,905-890-1711,https://peelchildcare.cioc.ca/record/CDR0676,School-Based Centre,Yes,3,113569
-8864932.234,5404115.444,505,CC-PLP-081,Sts. Peter and Paul (PLASP),Social Services,Child Care (PLASP),Child Care Centre,4205 Woodington Dr,,Mississauga,ON,L4Z 1K2,905-890-1711,https://peelchildcare.cioc.ca/record/CDR1048,School-Based Centre,Yes,4,255654
-8859935.0646,5408847.8125,506,CC-OTH-140,Sunshine Children's Centre,Social Services,Child Care (Other),Child Care Centre,3657 Ponytrail Dr,,Mississauga,ON,L4X 1W5,905-625-6539,https://peelchildcare.cioc.ca/record/CDR0457,Community-Based Non-Profit Centre,No,3,250467
-8871418.686,5423055.4213,507,CC-OTH-310,Tall Pines School,Social Services,Child Care (Other),Child Care Centre,8525 Torbram Rd,,Brampton,ON,L6T 5K4,905-458-6770,https://peelchildcare.cioc.ca/record/CDR1020,Community-Based For-Profit Centre,No,8,
-8862480.3379,5395559.2361,508,CC-PLP-019,Tecumseh (PLASP),Social Services,Child Care (PLASP),Child Care Centre,1480 Chriseden Dr,,Mississauga,ON,L5H 1V4,905-890-1711,https://peelchildcare.cioc.ca/record/CDR0657,School-Based Centre,Yes,2,146969
-8866502.4192,5395772.2259,509,CC-OTH-020,Tender Years Co-operative School,Social Services,Child Care (Other),Child Care Centre,1444 Dundas Cres,,Mississauga,ON,L5C 1E9,905-828-1104,https://peelchildcare.cioc.ca/record/CDR0472,Community-Based Non-Profit Centre,No,7,
-8882454.153,5423951.7171,510,CC-PLP-154,Terry Fox (PLASP),Social Services,Child Care (PLASP),Child Care Centre,95 Richvale Dr N,,Brampton,ON,L6Z 1Y6,905-890-1711,https://peelchildcare.cioc.ca/record/CDR0744,School-Based Centre,Yes,2,290941
-8869803.2951,5401364.854,511,CC-OTH-337,Terry Fox Montessori Inc.,Social Services,Child Care (Other),Child Care Centre,1051 Eglinton Ave W,,Mississauga,ON,L5V 2W3,289-997-1312,https://peelchildcare.cioc.ca/record/CDR1614,Community-Based For-Profit Centre,No,6,226146
-8872846.7053,5442915.043,512,CC-OTH-348,The Early Childhood Academy Corp.,Social Services,Child Care (Other),Child Care Centre,20 Simona Dr,1,Caledon,ON,L7E 4K1,905-857-6664,https://peelchildcare.cioc.ca/record/CDR1685,Community-Based For-Profit Centre,No,5,427021
-8869286.6571,5391694.393,513,CC-FDC-024,Thorn Lodge (Family Day Care),Social Services,Child Care (Family Day),Child Care Centre,2730 Thorn Lodge Dr,,Mississauga,ON,L5K 1Y6,416-922-3434,https://peelchildcare.cioc.ca/record/CDR1032,School-Based Centre,Yes,2,
-8863378.2733,5402122.5613,514,CC-PLP-067,Thornwood (PLASP),Social Services,Child Care (PLASP),Child Care Centre,277 Mississauga Valley Blvd,,Mississauga,ON,L5A 1Y6,905-890-1711,https://peelchildcare.cioc.ca/record/CDR0677,School-Based Centre,Yes,4,228271
-8862773.4182,5400149.0689,515,CC-OTH-053,Tiny Treasure Mississauga Day Care,Social Services,Child Care (Other),Child Care Centre,80 King St W,,Mississauga,ON,L5B 1G9,905-276-2370,https://peelchildcare.cioc.ca/record/CDR0480,Community-Based For-Profit Centre,No,7,240758
-8860663.6341,5399137.052,516,CC-OTH-045,Tiny Treasure Montessori School,Social Services,Child Care (Other),Child Care Centre,84 South Service Rd,,Mississauga,ON,L5G 2R9,905-271-2600,https://peelchildcare.cioc.ca/record/CDR0587,Community-Based For-Profit Centre,No,1,
-8887397.1217,5428277.0145,517,CC-FDC-035,Tony Pontes (Family Day),Social Services,Child Care (Family Day),Child Care Centre,12872 Kennedy Rd,,Caledon,ON,L7C 4C4,416-922-9556 ext 2418,https://peelchildcare.cioc.ca/record/CDR1651,School-Based Centre,Yes,2,444721
-8857331.3517,5400879.407,518,CC-OTH-311,Toronto French School,Social Services,Child Care (French),Child Care Centre,1293 Meredith Ave,,Mississauga,ON,L5E 2E6,905-278-7243,https://peelchildcare.cioc.ca/record/CDR1406,Community-Based For-Profit Centre,No,1,
-8879849.9126,5403014.8173,519,CC-OTH-274,Tot Town Child Care,Social Services,Child Care (Other),Child Care Centre,7205 Copenhagen Rd ,"3,4",Mississauga,ON,L5N 2C5,905-858-7852,https://peelchildcare.cioc.ca/record/CDR1012,Community-Based For-Profit Centre,No,9,400161
-8875821.74,5431200.7673,520,CC-PLP-169,Treeline (PLASP),Social Services,Child Care (PLASP),Child Care Centre,145 Treeline Blvd,,Brampton,ON,L6P 1E7,905-890-1711,https://peelchildcare.cioc.ca/record/CDR0767,School-Based Centre,Yes,10,319272
-8879807.8513,5399366.8992,521,CC-PLP-040b,Trelawny (PLASP),Social Services,Child Care (PLASP),Child Care Centre,3420 Trelawny Cir,,Mississauga,ON,L5N 6N6,905-890-1711,https://peelchildcare.cioc.ca/record/CDR0705,School-Based Centre,Yes,10,229815
-8879848.9035,5399365.6793,522,CC-PLP-040a,Trelawny Early Learning Centre (PLASP),Social Services,Child Care (PLASP),Child Care Centre,3420 Trelawny Cir,,Mississauga,ON,L5N 6N6,905-890-1711,https://peelchildcare.cioc.ca/record/CDR0529,School-Based Centre,No,10,
-8887772.9627,5417699.8535,523,CC-PLP-244,Tribune (PLASP),Social Services,Child Care (PLASP),Child Care Centre,30 Tribune Dr,,Brampton,ON,L7A 0X5,647-408-2100,https://peelchildcare.cioc.ca/record/CDR1439,School-Based Centre,Yes,6,397281
-8898148.5184,5434033.6,524,CC-OTH-215,Village Montessori School,Social Services,Child Care (Other),Child Care Centre,15673 McLaughlin Rd,,Caledon,ON,L7C 1M9,905-838-3886,https://peelchildcare.cioc.ca/record/CAL0075,Community-Based For-Profit Centre,No,1,253868
-8875028.6098,5399988.1754,525,CC-PLP-046,Vista Heights (PLASP),Social Services,Child Care (PLASP),Child Care Centre,89 Vista Blvd,,Mississauga,ON,L5M 1V8,905-890-1711,https://peelchildcare.cioc.ca/record/CDR0699,School-Based Centre,Yes,11,400216
-8871628.5662,5431337.0812,526,CC-OTH-300,Walnut Grove (PEAL Centres),Social Services,Child Care (Other),Child Care Centre,10 Pinestaff Rd,,Brampton,ON,L6P 3X8,647-294-2009,https://peelchildcare.cioc.ca/record/CDR0218,School-Based Centre,Yes,8,348515
-8877363.2813,5401569.155,527,CC-OTH-347,West Credit Child Care Centre,Social Services,Child Care (Other),Child Care Centre,6325 Montevideo Rd,,Mississauga,ON,L5N 4G7,905-858-3087 ext 209,https://peelchildcare.cioc.ca/record/CDR1475,School-Based Centre,No,9,1239
-8871310.3396,5391163.0174,528,CC-OTH-009,West Park Day Care,Social Services,Child Care (Other),Child Care Centre,3100 Ridgeway Dr ,45,Mississauga,ON,L5L 5M5,905-820-7211,https://peelchildcare.cioc.ca/record/CDR0494,Community-Based Non-Profit Centre,No,8,
-8859122.9156,5402243.5957,529,CC-PLP-070,Westacres (PLASP),Social Services,Child Care (PLASP),Child Care Centre,2165 Breezy Brae Dr,,Mississauga,ON,L4Y 1N3,905-890-1711,https://peelchildcare.cioc.ca/record/CDR0678,School-Based Centre,Yes,1,117993
-8879920.3065,5402945.0296,530,CC-OTH-083,Westbrook Montessori Academy,Social Services,Child Care (Other),Child Care Centre,7227 Copenhagen Rd,,Mississauga,ON,L5N 2C6,905-826-4648,https://peelchildcare.cioc.ca/record/CDR0248,Community-Based For-Profit Centre,No,9,110204
-8878353.5459,5402932.3982,531,CC-OTH-089,Western Heights Montessori Academy,Social Services,Child Care (Other),Child Care Centre,6920 Millcreek Dr,4,Mississauga,ON,L5N 6C1,905-858-5845,https://peelchildcare.cioc.ca/record/CDR0527,Community-Based For-Profit Centre,Yes,9,240997
-8881126.3844,5419771.3754,532,CC-PLP-227,Westervelts (PLASP),Social Services,Child Care (PLASP),Child Care Centre,20 Brickyard Way,,Brampton,ON,L6V 4L5,905-890-1711,https://peelchildcare.cioc.ca/record/CDR0746,School-Based Centre,Yes,1,239417
-8881865.9674,5408496.959,533,CC-PLP-243,Whaley's Corner Public School (PLASP),Social Services,Child Care (PLASP),Child Care Centre,140 Howard Stewart Rd,,Brampton,ON,L6Y 6B1,1-888-739-4102,https://peelchildcare.cioc.ca/record/CDR1610,School-Based Centre,No,6,421467
-8864649.4412,5392572.8418,534,CC-PLP-007,White Oaks (PLASP),Social Services,Child Care (PLASP),Child Care Centre,1690 Mazo Cres,,Mississauga,ON,L5J 1Y8,905-890-1711,https://peelchildcare.cioc.ca/record/CDR0658,School-Based Centre,Yes,2,45603
-8864755.7781,5391896.0311,535,CC-OTH-313,White Oaks Montessori (Clarkson),Social Services,Child Care (Other),Child Care Centre,1338 Clarkson Rd,,Mississauga,ON,L5J 2W5,905-278-4454,https://peelchildcare.cioc.ca/record/CDR0571,Community-Based For-Profit Centre,No,2,42254
-8863964.1078,5394955.4574,536,CC-OTH-312,White Oaks Montessori (Vanier),Social Services,Child Care (Other),Child Care Centre,1200 Vanier Dr,,Mississauga,ON,L5H 4C7,905-278-4454,https://peelchildcare.cioc.ca/record/CDR0571,Community-Based For-Profit Centre,No,2,
-8880526.9456,5398701.5296,537,CC-OTH-275,White Pines Montessori Academy,Social Services,Child Care (Other),Child Care Centre,3945 Doug Leavens Blvd,,Mississauga,ON,L5N 0A5,905-824-8700,https://peelchildcare.cioc.ca/record/CDR1015,Community-Based For-Profit Centre,No,10,
-8872441.7924,5403144.8644,538,CC-PLP-075,Whitehorn (PLASP),Social Services,Child Care (PLASP),Child Care Centre,5785 Whitehorn Ave,,Mississauga,ON,L5V 2A9,905-890-1711,https://peelchildcare.cioc.ca/record/CDR0714,School-Based Centre,Yes,6,275702
-8860654.7069,5406906.5096,539,CC-YMC-069,Williamsport (YMCA),Social Services,Child Care (YMCA),Child Care Centre,1320 Williamsport Dr,,Mississauga,ON,L4X 2T6,905-625-5624,https://peelchildcare.cioc.ca/record/CDR0445,Community-Based Non-Profit Centre,No,3,
-8873393.8645,5400584.9158,540,CC-OTH-328,Willow Tree Montessori,Social Services,Child Care (Other),Child Care Centre,274 Queen St S,,Mississauga,ON,L5M 1L8,647-787-8274,https://peelchildcare.cioc.ca/record/CDR1483,Community-Based For-Profit Centre,No,11,86366
-8873262.0146,5401857.9246,541,CC-FDC-002,Willow Way (Family Day Care),Social Services,Child Care (Family Day),Child Care Centre,1715 Willow Way,,Mississauga,ON,L5M 3W5,416-922-3434,https://peelchildcare.cioc.ca/record/CDR0537,School-Based Centre,Yes,6,
-8885624.5064,5419026.5151,542,CC-OTH-326,Willowbrae Academy Brampton,Social Services,Child Care (Other),Child Care Centre,10651 Chinguacousy Rd,,Brampton,ON,L7A 0N5,647-332-2688,https://peelchildcare.cioc.ca/record/CDR1464,Community-Based For-Profit Centre,No,6,315315
-8868601.8507,5407163.4565,543,CC-OTH-124,Willows Point Montessori,Social Services,Child Care (Other),Child Care Centre,5685 Whittle Rd,,Mississauga,ON,L4Z 3P8,905-568-4069,https://peelchildcare.cioc.ca/record/CDR0539,Community-Based For-Profit Centre,No,5,24946
-8879711.5979,5417310.4515,544,CC-OTH-282,Wonder Years Montessori,Social Services,Child Care (Other),Child Care Centre,49 David St,,Brampton,ON,L7K 0E8,1-866-317-6251,https://peelchildcare.cioc.ca/record/CDR1282,Community-Based Non-Profit Centre,No,1,202085
-8885363.3411,5416740.649,545,CC-PLP-118,Worthington (PLASP),Social Services,Child Care (PLASP),Child Care Centre,71 Worthington Ave,,Brampton,ON,L7A 1N9,905-890-1711,https://peelchildcare.cioc.ca/record/CDR0771,School-Based Centre,Yes,6,276742
-8863568.6781,5390989.606,546,CC-OTH-010,Young Minds Montessori Preschool,Social Services,Child Care (Other),Child Care Centre,1744 Lakeshore Rd W,,Mississauga,ON,L5J 4N8,905-403-0403,https://peelchildcare.cioc.ca/record/CDR0566,Community-Based For-Profit Centre,No,2,418038
-8881619.1966,5425300.0857,547,CC-OTH-288,Yunaland,Social Services,Child Care (Other),Child Care Centre,10747 Heart Lake Rd,Lower Level,Brampton,ON,L6Z 0B7,647-494-3253,https://peelchildcare.cioc.ca/record/CDR1347,Community-Based For-Profit Centre,No,2,88173